{"type":"FeatureCollection","features":[{"type":"Feature","properties":{"id":"MZ","name":"Mizoram"},"geometry":{"type":"Polygon","coordinates":[[[92.5996,22.0110],[92.6057,22.1237],[92.5094,22.7410],[92.4482,22.8757],[92.3718,22.9362],[92.3917,23.0572],[92.3458,23.2373],[92.4024,23.2661],[92.3641,23.3225],[92.2724,23.6428],[92.2571,23.8133],[92.3244,23.9136],[92.3121,24.0525],[92.3305,24.1831],[92.2953,24.2450],[92.4222,24.2504],[92.4360,24.1542],[92.5323,24.1776],[92.5507,24.2477],[92.6119,24.2559],[92.6256,24.3316],[92.6898,24.3536],[92.7617,24.5130],[92.7999,24.4195],[92.8963,24.3907],[93.0094,24.4127],[93.0232,24.2340],[92.9758,24.1157],[93.2067,24.0470],[93.3963,23.9260],[93.4239,23.5273],[93.3902,23.4971],[93.4024,23.3885],[93.3581,23.3307],[93.3917,23.2208],[93.3550,23.0737],[93.3000,23.0049],[93.1960,23.0558],[93.1226,23.0063],[93.1455,22.9279],[93.0966,22.7863],[93.0935,22.7080],[93.1425,22.5829],[93.1318,22.4715],[93.1884,22.4248],[93.1991,22.2777],[93.1608,22.1801],[93.0507,22.2007],[92.9987,22.0536],[92.9391,22.0165],[92.7051,22.1512],[92.6883,22.0398],[92.5996,22.0110]]]}},{"type":"Feature","properties":{"id":"TN","name":"Tamil Nadu"},"geometry":{"type":"Polygon","coordinates":[[[77.2619,8.5068],[77.2695,8.5782],[77.1701,8.7418],[77.2557,8.8793],[77.1931,8.9261],[77.1487,9.0099],[77.2680,9.1529],[77.2817,9.2986],[77.4026,9.5255],[77.3184,9.6024],[77.2695,9.5722],[77.1671,9.6121],[77.2466,9.7990],[77.2129,9.8774],[77.2634,10.0286],[77.2879,10.2321],[77.1808,10.3572],[77.0906,10.3146],[76.9820,10.2197],[76.8918,10.2596],[76.8337,10.3393],[76.8153,10.4232],[76.8383,10.5964],[76.9071,10.7820],[76.8306,10.8700],[76.6563,10.9387],[76.7542,11.0789],[76.6945,11.1669],[76.7068,11.2398],[76.6288,11.1944],[76.4422,11.2013],[76.5217,11.2700],[76.5477,11.3594],[76.4606,11.3882],[76.2343,11.5271],[76.3780,11.6013],[76.4178,11.6714],[76.5110,11.7044],[76.5600,11.6220],[76.8475,11.5945],[76.8352,11.6549],[76.9086,11.7952],[77.0126,11.8144],[77.1105,11.7732],[77.2925,11.8089],[77.4285,11.7677],[77.4943,11.9436],[77.6763,11.9519],[77.7084,12.0358],[77.7757,12.1127],[77.7466,12.1554],[77.6105,12.2062],[77.5050,12.1980],[77.4714,12.2433],[77.5509,12.2915],[77.6151,12.3671],[77.6350,12.4881],[77.5876,12.5142],[77.6013,12.6681],[77.7390,12.6723],[77.7925,12.7493],[77.8307,12.8661],[77.9286,12.8909],[77.9791,12.8359],[78.0570,12.8524],[78.1335,12.7822],[78.2314,12.7603],[78.3017,12.6654],[78.4118,12.6269],[78.5923,12.7822],[78.6213,12.9912],[78.8920,13.0957],[78.9944,13.0861],[79.1626,13.0201],[79.2345,13.1053],[79.2284,13.1576],[79.2835,13.1232],[79.4379,13.1878],[79.4058,13.3349],[79.5373,13.3390],[79.5342,13.2758],[79.6826,13.2964],[79.7025,13.2222],[79.7942,13.2400],[79.8095,13.3170],[79.9456,13.3638],[80.0373,13.5384],[80.0786,13.4889],[80.2147,13.4902],[80.2682,13.5645],[80.3264,13.4449],[80.3447,13.2758],[80.3004,13.1424],[80.2545,12.7795],[80.1383,12.4111],[79.8569,12.0495],[79.8401,11.9560],[79.7850,11.9601],[79.6856,11.8804],[79.8080,11.8447],[79.7606,11.6233],[79.7667,11.5216],[79.8126,11.4240],[79.8569,11.1765],[79.8508,10.9854],[79.7483,10.9964],[79.7239,10.9291],[79.8187,10.8796],[79.8493,10.8273],[79.8600,10.2829],[79.7682,10.2719],[79.3874,10.3173],[79.2666,10.2293],[79.2269,10.1372],[79.2513,10.0506],[78.9807,9.6891],[78.9302,9.5956],[78.8996,9.4691],[78.9837,9.3591],[79.0648,9.2986],[79.1581,9.2849],[79.3354,9.3110],[79.3033,9.2450],[79.2039,9.2780],[78.8721,9.2574],[78.5785,9.1309],[78.4240,9.1172],[78.3843,9.0938],[78.2283,8.9742],[78.1717,8.8834],[78.1610,8.8051],[78.1947,8.7515],[78.1381,8.6800],[78.1427,8.5013],[78.0570,8.3789],[77.8414,8.2511],[77.7940,8.1631],[77.5891,8.1397],[77.5555,8.0765],[77.4454,8.0943],[77.2328,8.1809],[77.0982,8.2923],[77.2619,8.5068]]]}},{"type":"Feature","properties":{"id":"MP","name":"Madhya Pradesh"},"geometry":{"type":"Polygon","coordinates":[[[76.4896,21.1916],[76.4774,21.1476],[76.3826,21.0761],[76.1670,21.0789],[76.1593,21.2549],[76.0951,21.3717],[75.3825,21.3800],[75.2112,21.4116],[75.1072,21.4624],[75.0522,21.5669],[74.8626,21.6343],[74.7754,21.6150],[74.5827,21.6645],[74.5047,21.7264],[74.5246,21.9120],[74.4527,21.9615],[74.4329,22.0302],[74.2815,21.9340],[74.1469,21.9505],[74.0949,22.0165],[74.1240,22.0976],[74.1224,22.2117],[74.0536,22.2983],[74.0689,22.3560],[74.1897,22.3203],[74.2157,22.4413],[74.1194,22.4193],[74.0582,22.5499],[74.1500,22.5210],[74.2631,22.6434],[74.3793,22.6351],[74.4023,22.7313],[74.4650,22.8166],[74.4604,22.9073],[74.3931,22.8963],[74.3197,23.0599],[74.3855,23.1122],[74.5063,23.0847],[74.7341,23.2208],[74.5292,23.3211],[74.5720,23.4201],[74.7723,23.5425],[74.8473,23.5521],[74.9222,23.6662],[74.9406,23.7652],[74.9023,23.8738],[74.9742,24.0401],[74.8794,24.1735],[74.9084,24.2120],[74.8672,24.2436],[74.7540,24.2422],[74.7815,24.3384],[74.8549,24.4237],[74.8152,24.4690],[74.6974,24.4828],[74.7861,24.5859],[74.7723,24.6615],[74.8045,24.7357],[74.8886,24.6340],[74.9926,24.6931],[74.9773,24.7646],[74.8610,24.7990],[74.8259,24.8993],[74.9023,24.9296],[74.9589,24.8581],[75.0384,24.8457],[75.1164,24.8773],[75.1134,24.9667],[75.1913,25.0368],[75.3519,25.0189],[75.3366,24.9529],[75.1837,24.7481],[75.4559,24.6807],[75.5492,24.7027],[75.6088,24.6821],[75.7847,24.7619],[75.8244,24.6670],[75.9208,24.5433],[75.9009,24.4429],[75.7862,24.4525],[75.7281,24.3962],[75.8137,24.2450],[75.7510,24.1432],[75.8367,24.0566],[75.7021,23.9659],[75.5217,24.0250],[75.4620,23.9178],[75.5645,23.8559],[75.5828,23.7954],[75.6899,23.7473],[75.7938,23.8669],[75.9376,23.8971],[76.0416,24.0662],[76.1272,24.0882],[76.1180,24.1941],[76.3214,24.2450],[76.5707,24.2092],[76.6441,24.2697],[76.6762,24.1913],[76.8016,24.1171],[76.8811,24.1308],[76.9224,24.2120],[76.8627,24.2724],[76.8322,24.3577],[76.8444,24.4360],[76.8169,24.5336],[76.8612,24.5488],[76.9774,24.4608],[77.0692,24.5570],[77.0340,24.7082],[76.9469,24.7591],[76.8551,24.7440],[76.8046,24.8072],[76.9499,24.8691],[76.8612,24.9612],[76.8765,25.0409],[77.0004,25.0753],[77.0860,25.0547],[77.1747,25.1110],[77.2695,25.1152],[77.3123,25.0808],[77.3934,25.1193],[77.4117,25.2238],[77.3674,25.4107],[77.3139,25.4314],[77.2343,25.3791],[77.2236,25.3186],[77.0830,25.3365],[76.9453,25.2843],[76.8566,25.3324],[76.7618,25.3200],[76.6701,25.3489],[76.5936,25.4080],[76.5156,25.5276],[76.5034,25.6706],[76.5462,25.8383],[76.6425,25.9084],[76.7159,25.9015],[76.7878,25.9441],[76.9010,26.0926],[77.1197,26.2136],[77.2710,26.2672],[77.4377,26.4033],[77.5386,26.4116],[77.7451,26.5380],[77.8231,26.5504],[77.9041,26.6590],[78.0005,26.6948],[78.0892,26.6755],[78.1121,26.7951],[78.3583,26.8694],[78.3950,26.8171],[78.5449,26.7635],[78.7803,26.7690],[78.8721,26.6975],[79.0067,26.6714],[78.9898,26.5793],[79.1351,26.4404],[79.1382,26.3387],[78.9944,26.1971],[79.0113,26.0830],[78.9486,26.0280],[78.9379,25.9524],[78.8859,25.9125],[78.7635,25.7201],[78.8109,25.6197],[78.7177,25.6046],[78.6580,25.5592],[78.4516,25.5716],[78.3950,25.4437],[78.3552,25.4520],[78.3399,25.4327],[78.3445,25.3283],[78.4470,25.1220],[78.3369,25.0849],[78.3461,25.0121],[78.1717,24.8760],[78.2757,24.6629],[78.2681,24.4498],[78.3690,24.3742],[78.3292,24.3274],[78.3889,24.2628],[78.5020,24.3907],[78.5861,24.3536],[78.7024,24.2271],[78.8063,24.1790],[78.9715,24.3481],[78.9853,24.4415],[78.9149,24.4594],[78.9531,24.5474],[78.8828,24.6409],[78.7513,24.5996],[78.7803,24.7055],[78.7696,24.8595],[78.6764,24.8980],[78.6320,24.9571],[78.6397,25.0712],[78.5127,25.2760],[78.6595,25.3832],[78.7742,25.3530],[78.7314,25.4575],[78.8843,25.5152],[78.9424,25.4919],[78.8797,25.3860],[78.9608,25.3448],[78.8706,25.1867],[78.8797,25.1578],[78.9302,25.2073],[79.0632,25.2224],[79.1305,25.1097],[79.2452,25.1138],[79.3232,25.1495],[79.2636,25.2733],[79.2804,25.3241],[79.3523,25.3296],[79.4364,25.2540],[79.3905,25.1702],[79.4058,25.1069],[79.4914,25.0794],[79.5694,25.1715],[79.6734,25.1207],[79.7483,25.1399],[79.8401,25.0987],[79.8554,25.1935],[80.0328,25.3420],[80.2208,25.3970],[80.3157,25.3887],[80.3111,25.2856],[80.4043,25.2430],[80.4303,25.1743],[80.2637,25.0244],[80.3417,25.0134],[80.4013,25.0698],[80.4777,24.9763],[80.5007,25.0409],[80.5924,25.0904],[80.7148,25.0657],[80.7239,25.1179],[80.8448,25.1867],[80.8784,25.0657],[80.8310,25.0327],[80.8600,24.9282],[80.9457,24.9667],[81.0344,24.9529],[81.1200,24.9035],[81.1598,24.9131],[81.2638,25.0533],[81.2775,25.1660],[81.3922,25.1317],[81.4992,25.1482],[81.5405,25.1880],[81.6262,25.1605],[81.6675,25.0616],[81.7928,25.0038],[81.8922,24.9887],[81.9427,24.8457],[82.2164,24.7935],[82.2975,24.6065],[82.4183,24.5941],[82.4183,24.6519],[82.6706,24.6972],[82.7073,24.6368],[82.7731,24.6423],[82.7975,24.5763],[82.7440,24.4965],[82.7134,24.3797],[82.7700,24.3701],[82.7440,24.1652],[82.6645,24.1281],[82.8128,23.9618],[82.6935,23.9191],[82.6354,23.8380],[82.4978,23.7844],[82.2608,23.8215],[82.2088,23.8531],[82.0819,23.8160],[82.0069,23.8614],[81.9213,23.8710],[81.8097,23.8078],[81.7256,23.8394],[81.6675,23.9246],[81.6032,23.8848],[81.6109,23.8366],[81.6965,23.7212],[81.6139,23.6634],[81.6109,23.5122],[81.7577,23.5493],[81.8204,23.5150],[81.9167,23.5342],[81.9855,23.4146],[82.1033,23.3981],[82.1996,23.3142],[82.1232,23.1039],[81.9427,23.0792],[81.9504,22.9829],[81.8617,22.8894],[81.7760,22.8743],[81.7944,22.7657],[81.7286,22.6695],[81.6491,22.6145],[81.6216,22.5375],[81.4748,22.4894],[81.3280,22.5251],[81.2485,22.4591],[81.1934,22.4908],[81.1108,22.4358],[81.1185,22.2914],[81.0451,22.2406],[81.0038,22.0591],[80.9075,22.1100],[80.8325,21.8969],[80.8463,21.8350],[80.8172,21.7621],[80.7561,21.7621],[80.7148,21.6618],[80.7377,21.4734],[80.6613,21.3332],[80.6215,21.3208],[80.5282,21.3951],[80.4227,21.4405],[80.3753,21.5243],[80.2682,21.6178],[80.1214,21.6109],[80.0664,21.5546],[79.9181,21.5243],[79.7392,21.6027],[79.5388,21.5408],[79.4960,21.6742],[79.3920,21.6742],[79.2345,21.7182],[79.2238,21.6480],[79.0770,21.6054],[78.9746,21.6178],[78.9164,21.5903],[78.8996,21.5009],[78.5846,21.4872],[78.5112,21.5284],[78.4332,21.4968],[78.4195,21.5711],[78.3430,21.5889],[78.2237,21.5518],[78.1763,21.4996],[78.0295,21.4212],[77.8842,21.3841],[77.8017,21.4088],[77.4882,21.3745],[77.4545,21.5532],[77.5753,21.5271],[77.5432,21.7044],[77.4790,21.7704],[77.2802,21.7580],[77.2099,21.6893],[77.0615,21.7127],[77.0065,21.6783],[76.9988,21.6920],[76.9025,21.5972],[76.8551,21.6137],[76.7817,21.5587],[76.7832,21.4638],[76.6211,21.3318],[76.6624,21.2810],[76.6227,21.1847],[76.4896,21.1916]]]}},{"type":"Feature","properties":{"id":"MH","name":"Maharashtra"},"geometry":{"type":"Polygon","coordinates":[[[74.3151,16.5546],[74.3319,16.4542],[74.3167,16.3264],[74.3732,16.2618],[74.4803,16.2494],[74.4803,16.1476],[74.3717,16.0789],[74.4635,16.0390],[74.3870,15.9043],[74.3457,15.7641],[74.2387,15.7448],[74.2096,15.7806],[74.1224,15.7201],[74.1179,15.6514],[73.9909,15.6115],[73.9389,15.7421],[73.6851,15.7283],[73.5888,15.9098],[73.5108,15.9373],[73.3686,16.3635],[73.3517,16.6151],[73.3059,16.7305],[73.3181,16.8048],[73.2768,16.8914],[73.2890,17.1155],[73.2233,17.2653],[73.2447,17.3217],[73.1835,17.3849],[73.1774,17.5829],[73.0444,17.9816],[72.9725,18.1245],[72.9694,18.2428],[73.0291,18.2648],[72.9144,18.3541],[72.8945,18.4627],[72.9343,18.5411],[72.8563,18.6992],[72.8685,18.7995],[72.8028,18.9054],[72.8395,19.0484],[72.7859,19.1295],[72.7982,19.3041],[72.7186,19.5392],[72.7156,19.6464],[72.6544,19.8361],[72.6636,19.9337],[72.7324,19.9722],[72.7079,20.0739],[72.8731,20.2265],[72.9618,20.2087],[72.9648,20.1276],[73.1376,20.0863],[73.2493,20.1221],[73.2997,20.2100],[73.4160,20.2045],[73.4037,20.3860],[73.4680,20.4960],[73.4725,20.5840],[73.4068,20.6238],[73.4741,20.7201],[73.6148,20.6252],[73.6530,20.5647],[73.7447,20.5647],[73.8380,20.6211],[73.8747,20.7297],[73.9175,20.7242],[73.9420,20.8397],[73.8885,20.9332],[73.8487,20.9992],[73.8074,21.0088],[73.6667,21.1545],[73.8151,21.1737],[73.8227,21.2700],[73.9420,21.3002],[73.9588,21.3951],[74.0460,21.4460],[74.3212,21.4982],[74.2754,21.5614],[74.1637,21.5683],[73.9818,21.5216],[73.8350,21.5202],[73.8135,21.6439],[73.8808,21.7140],[73.8243,21.7608],[73.8166,21.8405],[74.1469,21.9505],[74.2815,21.9340],[74.4329,22.0302],[74.4527,21.9615],[74.5246,21.9120],[74.5047,21.7264],[74.5827,21.6645],[74.7754,21.6150],[74.8626,21.6343],[75.0522,21.5669],[75.1072,21.4624],[75.2112,21.4116],[75.3825,21.3800],[76.0951,21.3717],[76.1593,21.2549],[76.1670,21.0789],[76.3826,21.0761],[76.4774,21.1476],[76.4896,21.1916],[76.6227,21.1847],[76.6624,21.2810],[76.6211,21.3318],[76.7832,21.4638],[76.7817,21.5587],[76.8551,21.6137],[76.9025,21.5972],[76.9988,21.6920],[77.0065,21.6783],[77.0615,21.7127],[77.2099,21.6893],[77.2802,21.7580],[77.4790,21.7704],[77.5432,21.7044],[77.5753,21.5271],[77.4545,21.5532],[77.4882,21.3745],[77.8017,21.4088],[77.8842,21.3841],[78.0295,21.4212],[78.1763,21.4996],[78.2237,21.5518],[78.3430,21.5889],[78.4195,21.5711],[78.4332,21.4968],[78.5112,21.5284],[78.5846,21.4872],[78.8996,21.5009],[78.9164,21.5903],[78.9746,21.6178],[79.0770,21.6054],[79.2238,21.6480],[79.2345,21.7182],[79.3920,21.6742],[79.4960,21.6742],[79.5388,21.5408],[79.7392,21.6027],[79.9181,21.5243],[80.0664,21.5546],[80.1214,21.6109],[80.2682,21.6178],[80.3753,21.5243],[80.4227,21.4405],[80.5282,21.3951],[80.6215,21.3208],[80.6613,21.3332],[80.6138,21.2260],[80.4640,21.1751],[80.4395,21.0968],[80.4640,20.9290],[80.5466,20.9345],[80.5802,20.6733],[80.5206,20.5799],[80.6169,20.5854],[80.5909,20.3929],[80.6261,20.3324],[80.3952,20.2444],[80.4319,20.1358],[80.5053,20.1441],[80.5450,20.1001],[80.5297,19.9392],[80.4686,19.8265],[80.5466,19.8182],[80.5634,19.7591],[80.6720,19.7028],[80.7148,19.6162],[80.8952,19.5199],[80.8524,19.3646],[80.7515,19.2876],[80.6123,19.3096],[80.5771,19.3976],[80.4823,19.3371],[80.3936,19.1872],[80.3325,19.1446],[80.3294,19.0704],[80.2713,18.9425],[80.3493,18.8477],[80.2744,18.7652],[80.2759,18.7198],[80.1184,18.6799],[80.0190,18.7707],[79.9135,18.8257],[79.9609,18.8655],[79.9395,19.0346],[79.8584,19.1020],[79.9288,19.1584],[79.9777,19.3989],[79.9441,19.4704],[79.8645,19.5103],[79.8064,19.5790],[79.7437,19.6093],[79.4715,19.5007],[79.3660,19.5763],[79.2529,19.5928],[79.1902,19.4594],[79.0969,19.5323],[78.9363,19.5502],[78.9562,19.6560],[78.8599,19.6890],[78.8415,19.7619],[78.5754,19.8182],[78.4317,19.8141],[78.3812,19.8801],[78.3063,19.9117],[78.3644,19.7811],[78.3430,19.7138],[78.2757,19.6918],[78.3063,19.6065],[78.3094,19.4814],[78.2115,19.4278],[78.1748,19.2381],[78.0418,19.2711],[77.9439,19.3426],[77.8628,19.3041],[77.8598,19.1804],[77.7971,19.0731],[77.8430,18.9082],[77.9485,18.8435],[77.8399,18.8050],[77.7879,18.6827],[77.7298,18.6662],[77.7390,18.5562],[77.5968,18.5493],[77.5845,18.4462],[77.5249,18.3720],[77.5509,18.2923],[77.4652,18.2620],[77.4087,18.3019],[77.4133,18.3926],[77.3169,18.4421],[77.2649,18.4229],[77.2466,18.3706],[77.0646,18.1507],[76.9514,18.1878],[76.9209,18.1177],[76.9530,18.0407],[76.9056,18.0091],[76.9193,17.9156],[76.7756,17.8771],[76.7404,17.8991],[76.7909,17.8262],[76.7144,17.7809],[76.6854,17.6819],[76.6563,17.7176],[76.5233,17.7602],[76.4896,17.6599],[76.3321,17.5966],[76.3306,17.4702],[76.3719,17.4358],[76.3826,17.3148],[76.2297,17.3657],[75.9315,17.3231],[75.8948,17.4014],[75.8137,17.3726],[75.6333,17.4770],[75.5736,17.3836],[75.6042,17.3052],[75.6547,17.2736],[75.6256,17.1732],[75.6730,17.1155],[75.6654,16.9794],[75.5293,16.9698],[75.4651,16.9890],[75.2800,16.9560],[75.2647,16.8625],[75.1822,16.8433],[75.0889,16.9519],[74.9023,16.8625],[74.9192,16.7732],[74.8503,16.7732],[74.6959,16.7154],[74.6301,16.5834],[74.5705,16.5546],[74.5445,16.6357],[74.3151,16.5546]]]}},{"type":"Feature","properties":{"id":"CT","name":"Chhattisgarh"},"geometry":{"type":"Polygon","coordinates":[[[81.6583,18.3473],[81.5298,18.2400],[81.4824,17.9774],[81.3998,17.8936],[81.3968,17.8180],[81.2653,17.8111],[81.1659,17.8578],[81.0848,17.7974],[81.0160,17.7946],[80.9701,18.0476],[80.9793,18.1658],[80.8662,18.1397],[80.8524,18.2057],[80.7561,18.1699],[80.7484,18.3088],[80.7056,18.4394],[80.6368,18.5232],[80.4548,18.6305],[80.3722,18.6112],[80.2759,18.7198],[80.2744,18.7652],[80.3493,18.8477],[80.2713,18.9425],[80.3294,19.0704],[80.3325,19.1446],[80.3936,19.1872],[80.4823,19.3371],[80.5771,19.3976],[80.6123,19.3096],[80.7515,19.2876],[80.8524,19.3646],[80.8952,19.5199],[80.7148,19.6162],[80.6720,19.7028],[80.5634,19.7591],[80.5466,19.8182],[80.4686,19.8265],[80.5297,19.9392],[80.5450,20.1001],[80.5053,20.1441],[80.4319,20.1358],[80.3952,20.2444],[80.6261,20.3324],[80.5909,20.3929],[80.6169,20.5854],[80.5206,20.5799],[80.5802,20.6733],[80.5466,20.9345],[80.4640,20.9290],[80.4395,21.0968],[80.4640,21.1751],[80.6138,21.2260],[80.7377,21.4734],[80.7148,21.6618],[80.7561,21.7621],[80.8172,21.7621],[80.8463,21.8350],[80.8325,21.8969],[80.9075,22.1100],[81.0038,22.0591],[81.0451,22.2406],[81.1185,22.2914],[81.1108,22.4358],[81.1934,22.4908],[81.2485,22.4591],[81.3280,22.5251],[81.4748,22.4894],[81.6216,22.5375],[81.6491,22.6145],[81.7286,22.6695],[81.7944,22.7657],[81.7760,22.8743],[81.8617,22.8894],[81.9504,22.9829],[81.9427,23.0792],[82.1232,23.1039],[82.1996,23.3142],[82.1033,23.3981],[81.9855,23.4146],[81.9167,23.5342],[81.8204,23.5150],[81.7577,23.5493],[81.6109,23.5122],[81.6139,23.6634],[81.6965,23.7212],[81.6109,23.8366],[81.6032,23.8848],[81.6675,23.9246],[81.7256,23.8394],[81.8097,23.8078],[81.9213,23.8710],[82.0069,23.8614],[82.0819,23.8160],[82.2088,23.8531],[82.2608,23.8215],[82.4978,23.7844],[82.6354,23.8380],[82.6935,23.9191],[82.8128,23.9618],[82.9474,23.8710],[83.0911,23.8710],[83.2073,23.9219],[83.3297,24.1020],[83.4321,24.0855],[83.5713,23.8628],[83.7059,23.8202],[83.7747,23.6098],[83.9383,23.5686],[84.0163,23.6346],[84.0148,23.5040],[83.9628,23.3857],[84.0744,23.3335],[84.0377,23.1713],[84.0637,23.1135],[84.1784,22.9802],[84.3741,22.9788],[84.3971,22.9279],[84.3237,22.8509],[84.2380,22.6915],[84.1524,22.6365],[84.0836,22.6379],[84.0102,22.5732],[84.0469,22.4688],[84.0102,22.3712],[83.8634,22.3437],[83.6279,22.2034],[83.5377,22.0453],[83.5392,21.9656],[83.5912,21.8254],[83.4612,21.6975],[83.4872,21.6439],[83.3832,21.6205],[83.3373,21.5009],[83.3985,21.4047],[83.3924,21.3428],[83.2685,21.3772],[83.1921,21.1394],[83.0774,21.1119],[82.9657,21.1751],[82.6400,21.1545],[82.6385,21.0885],[82.5605,20.9469],[82.4886,20.9084],[82.4596,20.8259],[82.3388,20.8741],[82.3770,20.6321],[82.3327,20.5620],[82.4382,20.4341],[82.3999,20.3406],[82.4213,20.2045],[82.3862,20.1454],[82.3984,20.0561],[82.7180,19.9887],[82.6966,19.8306],[82.5941,19.7756],[82.5314,19.8787],[82.4458,19.9103],[82.3449,19.8361],[82.2684,19.9750],[82.1843,19.9846],[82.0696,20.0574],[82.0176,20.0492],[81.9458,20.1056],[81.8754,20.0519],[81.8448,19.9516],[81.8693,19.9021],[81.9687,19.8595],[81.9855,19.8017],[82.0650,19.7907],[82.0283,19.5075],[82.1002,19.5172],[82.1262,19.4292],[82.1889,19.4278],[82.1614,19.2024],[82.2057,19.1212],[82.2455,18.9192],[82.1767,18.9027],[82.1583,18.7886],[82.0910,18.7377],[81.8999,18.6607],[81.9106,18.5700],[81.7699,18.4187],[81.7500,18.3541],[81.6583,18.3473]]]}},{"type":"Feature","properties":{"id":"GJ","name":"Gujarat"},"geometry":{"type":"MultiPolygon","coordinates":[[[[70.8270,20.6898],[70.4478,20.8479],[70.0915,21.1146],[69.7077,21.5353],[69.3713,21.8295],[69.3957,21.8886],[69.3514,21.8391],[69.2168,21.9574],[68.9660,22.2337],[68.9370,22.3107],[69.0058,22.4399],[69.1633,22.3478],[69.1786,22.2131],[69.3407,22.3120],[69.4905,22.3368],[69.5410,22.3767],[69.6205,22.3712],[69.8637,22.4633],[69.9753,22.5430],[70.1251,22.5526],[70.2230,22.6612],[70.2184,22.7176],[70.2918,22.7657],[70.3989,22.9046],[70.4493,22.8441],[70.5610,23.0297],[70.6894,23.1177],[70.7185,23.1891],[70.5044,23.1768],[70.4249,23.2166],[70.3117,23.2153],[70.1649,23.0668],[70.0808,22.9197],[69.9264,22.8963],[69.6480,22.7960],[69.4171,22.8111],[69.1312,22.8743],[68.6327,23.1699],[68.5317,23.2799],[68.5501,23.3555],[68.4002,23.4201],[68.4155,23.4861],[68.3268,23.4957],[68.3100,23.5782],[68.1418,23.6016],[68.1005,23.6786],[68.1724,23.6964],[68.2091,23.8751],[68.3391,23.9659],[68.7535,23.9714],[68.7642,24.2958],[68.8483,24.2395],[68.9461,24.3027],[69.0027,24.2230],[69.0945,24.2738],[69.1939,24.2367],[69.3131,24.2807],[69.4921,24.2669],[69.5945,24.2931],[69.7321,24.1707],[70.0257,24.1707],[70.1099,24.2944],[70.5732,24.4223],[70.5717,24.2518],[70.6680,24.2188],[70.8056,24.2202],[70.9861,24.3659],[71.0488,24.3563],[71.1023,24.4360],[70.9983,24.4443],[70.9861,24.5955],[71.1115,24.6752],[71.2873,24.6161],[71.3479,24.6610],[71.3772,24.6258],[71.4777,24.6796],[71.6078,24.6769],[71.6559,24.6395],[72.0582,24.7124],[72.1651,24.6216],[72.2303,24.6404],[72.3473,24.6285],[72.3532,24.5639],[72.4026,24.5144],[72.4414,24.5148],[72.4318,24.4851],[72.4998,24.4169],[72.4931,24.4591],[72.5389,24.5194],[72.5653,24.4903],[72.6833,24.4637],[72.7278,24.3673],[72.9583,24.3604],[73.0015,24.4800],[73.0872,24.4979],[73.0765,24.3962],[73.1514,24.3549],[73.0673,24.1941],[73.1254,24.1253],[73.2141,24.0772],[73.2432,24.0016],[73.3166,24.0539],[73.4053,24.0415],[73.4160,23.9246],[73.3777,23.9040],[73.3686,23.8147],[73.4741,23.7047],[73.5230,23.6071],[73.5719,23.6538],[73.6560,23.6208],[73.6270,23.4490],[73.7554,23.4545],[73.8304,23.4256],[73.8915,23.3349],[73.9588,23.3802],[73.9818,23.3376],[74.1393,23.2661],[74.1270,23.1754],[74.2478,23.1836],[74.3931,22.8963],[74.4604,22.9073],[74.4650,22.8166],[74.4023,22.7313],[74.3793,22.6351],[74.2631,22.6434],[74.1500,22.5210],[74.0582,22.5499],[74.1194,22.4193],[74.2157,22.4413],[74.1897,22.3203],[74.0689,22.3560],[74.0536,22.2983],[74.1224,22.2117],[74.1240,22.0976],[74.0949,22.0165],[74.1469,21.9505],[73.8166,21.8405],[73.8243,21.7608],[73.8808,21.7140],[73.8135,21.6439],[73.8350,21.5202],[73.9818,21.5216],[74.1637,21.5683],[74.2754,21.5614],[74.3212,21.4982],[74.0460,21.4460],[73.9588,21.3951],[73.9420,21.3002],[73.8227,21.2700],[73.8151,21.1737],[73.6667,21.1545],[73.8074,21.0088],[73.8487,20.9992],[73.8885,20.9332],[73.9420,20.8397],[73.9175,20.7242],[73.8747,20.7297],[73.8380,20.6211],[73.7447,20.5647],[73.6530,20.5647],[73.6148,20.6252],[73.4741,20.7201],[73.4068,20.6238],[73.4725,20.5840],[73.4680,20.4960],[73.4037,20.3860],[73.4160,20.2045],[73.2997,20.2100],[73.2493,20.1221],[73.2110,20.1207],[73.1346,20.1990],[73.1667,20.2884],[73.0428,20.3255],[72.9327,20.2953],[72.9618,20.2087],[72.8731,20.2265],[72.7752,20.1317],[72.7401,20.2430],[72.7783,20.3365],[72.8288,20.3681],[72.8869,20.4616],[72.9037,20.5757],[72.8547,20.7503],[72.7217,21.0486],[72.7508,21.0624],[72.6208,21.0995],[72.6376,21.2109],[72.5978,21.3167],[72.6544,21.3456],[72.6927,21.4611],[72.7355,21.4748],[72.7064,21.5271],[72.6101,21.5807],[72.7003,21.6453],[72.5428,21.7333],[72.6223,21.8089],[72.5092,21.9436],[72.5673,22.1814],[72.6483,22.2158],[72.7523,22.1732],[72.8670,22.2144],[72.9465,22.2928],[72.6590,22.2791],[72.5153,22.3217],[72.4602,22.2571],[72.3761,22.3148],[72.3379,22.1773],[72.2048,21.8914],[72.2415,21.8240],[72.1941,21.7498],[72.3088,21.6247],[72.2354,21.4556],[72.1085,21.3016],[72.1131,21.1985],[71.6773,20.9964],[71.5106,20.9442],[71.4372,20.8686],[71.3210,20.8466],[71.0503,20.7311],[70.9203,20.7421],[70.8270,20.6898]]],[[[72.3562,21.7979],[72.3104,21.8405],[72.2920,21.9670],[72.3746,22.0288],[72.4373,21.9271],[72.3562,21.7979]]]]}},{"type":"Feature","properties":{"id":"OR","name":"Odisha"},"geometry":{"type":"Polygon","coordinates":[[[82.3510,18.1727],[82.3189,18.0448],[82.2501,17.9926],[82.1675,18.0531],[82.0314,18.0696],[81.9794,18.0132],[81.8097,17.9568],[81.6170,17.8235],[81.3968,17.8180],[81.3998,17.8936],[81.4824,17.9774],[81.5298,18.2400],[81.6583,18.3473],[81.7500,18.3541],[81.7699,18.4187],[81.9106,18.5700],[81.8999,18.6607],[82.0910,18.7377],[82.1583,18.7886],[82.1767,18.9027],[82.2455,18.9192],[82.2057,19.1212],[82.1614,19.2024],[82.1889,19.4278],[82.1262,19.4292],[82.1002,19.5172],[82.0283,19.5075],[82.0650,19.7907],[81.9855,19.8017],[81.9687,19.8595],[81.8693,19.9021],[81.8448,19.9516],[81.8754,20.0519],[81.9458,20.1056],[82.0176,20.0492],[82.0696,20.0574],[82.1843,19.9846],[82.2684,19.9750],[82.3449,19.8361],[82.4458,19.9103],[82.5314,19.8787],[82.5941,19.7756],[82.6966,19.8306],[82.7180,19.9887],[82.3984,20.0561],[82.3862,20.1454],[82.4213,20.2045],[82.3999,20.3406],[82.4382,20.4341],[82.3327,20.5620],[82.3770,20.6321],[82.3388,20.8741],[82.4596,20.8259],[82.4886,20.9084],[82.5605,20.9469],[82.6385,21.0885],[82.6400,21.1545],[82.9657,21.1751],[83.0774,21.1119],[83.1921,21.1394],[83.2685,21.3772],[83.3924,21.3428],[83.3985,21.4047],[83.3373,21.5009],[83.3832,21.6205],[83.4872,21.6439],[83.4612,21.6975],[83.5912,21.8254],[83.5392,21.9656],[83.5377,22.0453],[83.6279,22.2034],[83.8634,22.3437],[84.0102,22.3712],[84.0469,22.4688],[84.0117,22.5279],[84.1111,22.4770],[84.1967,22.3780],[84.2915,22.3423],[84.4292,22.3519],[84.5347,22.4275],[84.7503,22.4193],[84.8099,22.4536],[84.9583,22.4454],[85.0699,22.4908],[85.0775,22.2571],[85.0286,22.1223],[85.1800,22.0728],[85.2381,22.0096],[85.2748,22.0825],[85.3971,22.1636],[85.6831,22.0577],[85.7489,22.0742],[85.7840,21.9849],[85.8972,21.9835],[86.0088,22.1155],[86.0318,22.1897],[85.9736,22.2474],[86.0287,22.3340],[86.0180,22.4262],[85.9629,22.4853],[86.0669,22.5568],[86.1189,22.4866],[86.2825,22.4481],[86.3590,22.3492],[86.4293,22.3162],[86.4966,22.3464],[86.7275,22.2158],[86.8376,22.0976],[86.9646,22.0852],[87.0288,22.0385],[87.0013,21.9134],[87.1007,21.8639],[87.1083,21.9244],[87.2429,21.9642],[87.2490,21.8543],[87.2826,21.8034],[87.4417,21.7676],[87.4845,21.6150],[87.4080,21.5449],[87.2199,21.5353],[87.1481,21.5092],[86.9493,21.3580],[86.8590,21.2136],[86.8529,21.0940],[86.9768,20.8603],[86.9676,20.7916],[86.8652,20.7833],[86.8055,20.7352],[86.8606,20.7751],[87.0227,20.7709],[87.0563,20.7146],[86.7887,20.5345],[86.7367,20.4616],[86.7765,20.3351],[86.5333,20.1812],[86.3697,19.9818],[86.2275,19.9007],[85.6785,19.7454],[85.3528,19.5887],[84.9812,19.3165],[84.8115,19.1570],[84.7656,19.0772],[84.7014,19.1185],[84.6234,19.0855],[84.5913,19.0236],[84.5148,19.0498],[84.3191,18.7886],[84.2243,18.7995],[84.0897,18.7583],[84.0362,18.8174],[83.8909,18.8160],[83.7930,19.0181],[83.7472,18.9934],[83.7563,18.9109],[83.6630,19.0992],[83.6080,19.0965],[83.4811,19.0346],[83.4597,18.9563],[83.3480,19.0181],[83.3174,18.9741],[83.4123,18.8738],[83.2043,18.7528],[83.1355,18.7858],[82.9994,18.6085],[83.0437,18.5452],[83.0193,18.4572],[83.0774,18.4036],[82.9688,18.3610],[82.8939,18.3816],[82.8067,18.4517],[82.7731,18.3418],[82.5865,18.2771],[82.6064,18.3665],[82.4856,18.5287],[82.3617,18.4215],[82.3831,18.3679],[82.3143,18.1850],[82.3510,18.1727]]]}},{"type":"Feature","properties":{"id":"AP","name":"Andhra Pradesh"},"geometry":{"type":"Polygon","coordinates":[[[79.1626,13.0201],[78.9944,13.0861],[78.8920,13.0957],[78.7513,13.0544],[78.6213,12.9912],[78.5923,12.7822],[78.4118,12.6269],[78.3017,12.6654],[78.2314,12.7603],[78.2528,12.8606],[78.3124,12.8592],[78.3552,12.9403],[78.4669,12.9747],[78.5861,13.2758],[78.4439,13.3088],[78.3644,13.3624],[78.4011,13.5879],[78.1962,13.5686],[78.2038,13.6291],[78.1213,13.7157],[78.1152,13.8628],[78.0005,13.8724],[77.9699,13.9590],[77.8139,13.9150],[77.7818,13.8188],[77.4561,13.6827],[77.4698,13.7583],[77.4331,13.8436],[77.3261,13.8339],[77.1808,13.8697],[77.1579,13.8064],[77.0646,13.7432],[76.9774,13.8271],[77.0417,13.9329],[76.9316,14.0305],[76.9484,14.0951],[76.8949,14.1680],[77.0034,14.1982],[77.0279,14.0621],[77.1732,14.0127],[77.3215,14.0305],[77.3980,13.9068],[77.4347,13.9480],[77.3903,14.0168],[77.3934,14.1749],[77.5035,14.1570],[77.4790,14.2917],[77.4087,14.3371],[77.3643,14.2752],[77.1380,14.3371],[77.1166,14.2257],[77.0050,14.2354],[76.8842,14.3481],[76.9010,14.4897],[76.8062,14.5309],[76.7649,14.6024],[76.7756,14.6808],[76.8368,14.7908],[76.8673,14.9695],[76.7603,14.9887],[76.8001,15.0960],[76.9851,15.0148],[77.1135,15.0341],[77.1564,15.1400],[77.1258,15.2266],[77.1518,15.2925],[77.0631,15.3283],[77.0325,15.4355],[77.0310,15.6349],[77.0830,15.6596],[77.0264,15.8370],[77.0722,15.9098],[77.2481,15.9648],[77.6595,15.8851],[77.8032,15.8741],[77.8873,15.9057],[78.0830,15.8411],[78.1748,15.8576],[78.2558,16.0088],[78.4103,16.0748],[78.5510,16.0432],[78.6014,16.0844],[78.7406,16.0088],[78.9226,16.1229],[78.9042,16.1834],[79.0296,16.2411],[79.1581,16.2095],[79.2146,16.2260],[79.2192,16.5120],[79.2575,16.5656],[79.4180,16.5807],[79.4471,16.6192],[79.7927,16.7250],[79.8768,16.6975],[79.9486,16.6357],[80.0557,16.7443],[80.0725,16.8172],[80.0389,16.9175],[80.0557,16.9711],[80.1872,17.0206],[80.3065,16.9739],[80.3218,16.8790],[80.5695,16.7677],[80.5634,16.8323],[80.6016,16.9189],[80.5343,16.9615],[80.3631,16.9766],[80.5053,17.0687],[80.5802,17.1526],[80.6995,17.0839],[80.8448,17.0399],[80.8769,17.0701],[80.8799,17.1608],[80.9411,17.2186],[80.9946,17.1911],[81.1735,17.2310],[81.1903,17.3244],[81.2745,17.3176],[81.3096,17.4097],[81.0206,17.5197],[80.9105,17.6379],[80.8860,17.7355],[80.9732,17.7795],[81.0588,17.7327],[81.0848,17.7974],[81.1659,17.8578],[81.2653,17.8111],[81.6170,17.8235],[81.8097,17.9568],[81.9794,18.0132],[82.0314,18.0696],[82.1675,18.0531],[82.2501,17.9926],[82.3189,18.0448],[82.3510,18.1727],[82.3143,18.1850],[82.3831,18.3679],[82.3617,18.4215],[82.4856,18.5287],[82.6064,18.3665],[82.5865,18.2771],[82.7731,18.3418],[82.8067,18.4517],[82.8939,18.3816],[82.9688,18.3610],[83.0774,18.4036],[83.0193,18.4572],[83.0437,18.5452],[82.9994,18.6085],[83.1355,18.7858],[83.2043,18.7528],[83.4123,18.8738],[83.3174,18.9741],[83.3480,19.0181],[83.4597,18.9563],[83.4811,19.0346],[83.6080,19.0965],[83.6630,19.0992],[83.7563,18.9109],[83.7472,18.9934],[83.7930,19.0181],[83.8909,18.8160],[84.0362,18.8174],[84.0897,18.7583],[84.2243,18.7995],[84.3191,18.7886],[84.5148,19.0498],[84.5913,19.0236],[84.6234,19.0855],[84.7014,19.1185],[84.7641,19.0745],[84.3542,18.5548],[84.1478,18.3734],[84.1279,18.3129],[83.6630,18.0792],[83.4199,17.8565],[83.3465,17.7259],[83.1615,17.5595],[83.0208,17.5073],[82.9917,17.4729],[82.5422,17.2488],[82.3189,17.0577],[82.2485,16.9354],[82.2485,16.8763],[82.3617,16.8556],[82.3143,16.5587],[82.2333,16.5422],[81.9565,16.3965],[81.7149,16.3112],[81.5528,16.3470],[81.3922,16.3429],[81.2653,16.2782],[81.2133,16.2081],[81.1475,15.9744],[81.0145,15.8507],[81.0084,15.7545],[80.9380,15.7160],[80.8310,15.7064],[80.7744,15.8672],[80.6796,15.8851],[80.5359,15.8521],[80.3157,15.7228],[80.2514,15.6335],[80.2056,15.4740],[80.1230,15.3682],[80.0404,15.0094],[80.1092,14.7385],[80.1964,14.5859],[80.1689,14.3508],[80.1306,14.2285],[80.1459,14.0415],[80.2545,13.7831],[80.2331,13.6566],[80.2682,13.5645],[80.2147,13.4902],[80.0786,13.4889],[80.0373,13.5384],[79.9456,13.3638],[79.8095,13.3170],[79.7942,13.2400],[79.7025,13.2222],[79.6826,13.2964],[79.5342,13.2758],[79.5373,13.3390],[79.4058,13.3349],[79.4379,13.1878],[79.2835,13.1232],[79.2284,13.1576],[79.2345,13.1053],[79.1626,13.0201]],[[82.2669,16.6948],[82.2700,16.7223],[82.1859,16.7374],[82.1996,16.7209],[82.2669,16.6948]]]}},{"type":"Feature","properties":{"id":"KA","name":"Karnataka"},"geometry":{"type":"Polygon","coordinates":[[[76.0033,11.9313],[75.8703,11.9519],[75.7938,12.0564],[75.6363,12.1485],[75.5767,12.1567],[75.4850,12.2901],[75.4146,12.2901],[75.4223,12.3726],[75.3657,12.4124],[75.4161,12.4990],[75.2800,12.5238],[75.1118,12.6805],[74.9818,12.7383],[74.8687,12.7589],[74.8228,12.8469],[74.6699,13.6346],[74.5827,13.9260],[74.5154,13.9865],[74.3946,14.4182],[74.2692,14.6272],[74.2631,14.7193],[74.1179,14.7853],[74.0857,14.9007],[74.2020,14.9255],[74.2968,15.0410],[74.2723,15.0973],[74.3167,15.1867],[74.2601,15.2417],[74.3258,15.2829],[74.3228,15.3682],[74.2754,15.3915],[74.2509,15.4919],[74.2784,15.5221],[74.2371,15.6679],[74.1179,15.6514],[74.1224,15.7201],[74.2096,15.7806],[74.2387,15.7448],[74.3457,15.7641],[74.3870,15.9043],[74.4635,16.0390],[74.3717,16.0789],[74.4803,16.1476],[74.4803,16.2494],[74.3732,16.2618],[74.3167,16.3264],[74.3319,16.4542],[74.3151,16.5546],[74.5445,16.6357],[74.5705,16.5546],[74.6301,16.5834],[74.6959,16.7154],[74.8503,16.7732],[74.9192,16.7732],[74.9023,16.8625],[75.0889,16.9519],[75.1822,16.8433],[75.2647,16.8625],[75.2800,16.9560],[75.4651,16.9890],[75.5293,16.9698],[75.6654,16.9794],[75.6730,17.1155],[75.6256,17.1732],[75.6547,17.2736],[75.6042,17.3052],[75.5736,17.3836],[75.6333,17.4770],[75.8137,17.3726],[75.8948,17.4014],[75.9315,17.3231],[76.2297,17.3657],[76.3826,17.3148],[76.3719,17.4358],[76.3306,17.4702],[76.3321,17.5966],[76.4896,17.6599],[76.5233,17.7602],[76.6563,17.7176],[76.6854,17.6819],[76.7144,17.7809],[76.7909,17.8262],[76.7404,17.8991],[76.7756,17.8771],[76.9193,17.9156],[76.9056,18.0091],[76.9530,18.0407],[76.9209,18.1177],[76.9514,18.1878],[77.0646,18.1507],[77.2466,18.3706],[77.2649,18.4229],[77.3169,18.4421],[77.4133,18.3926],[77.4087,18.3019],[77.4652,18.2620],[77.5509,18.2923],[77.6013,18.2758],[77.5631,18.1960],[77.5983,18.0929],[77.5478,18.0558],[77.6564,17.9692],[77.5861,17.9073],[77.5371,17.7795],[77.4530,17.6942],[77.4438,17.5843],[77.6855,17.5114],[77.5127,17.4303],[77.4836,17.3547],[77.3796,17.2227],[77.3643,17.1581],[77.4637,17.1100],[77.4974,17.0426],[77.4591,16.8845],[77.4760,16.7883],[77.4255,16.7209],[77.4530,16.6164],[77.4163,16.5175],[77.2420,16.4735],[77.2879,16.4089],[77.4148,16.3676],[77.4897,16.3855],[77.5937,16.3429],[77.5004,16.2219],[77.5142,15.9277],[77.2481,15.9648],[77.0722,15.9098],[77.0264,15.8370],[77.0830,15.6596],[77.0310,15.6349],[77.0325,15.4355],[77.0631,15.3283],[77.1518,15.2925],[77.1258,15.2266],[77.1564,15.1400],[77.1135,15.0341],[76.9851,15.0148],[76.8001,15.0960],[76.7603,14.9887],[76.8673,14.9695],[76.8368,14.7908],[76.7756,14.6808],[76.7649,14.6024],[76.8062,14.5309],[76.9010,14.4897],[76.8842,14.3481],[77.0050,14.2354],[77.1166,14.2257],[77.1380,14.3371],[77.3643,14.2752],[77.4087,14.3371],[77.4790,14.2917],[77.5035,14.1570],[77.3934,14.1749],[77.3903,14.0168],[77.4347,13.9480],[77.3980,13.9068],[77.3215,14.0305],[77.1732,14.0127],[77.0279,14.0621],[77.0034,14.1982],[76.8949,14.1680],[76.9484,14.0951],[76.9316,14.0305],[77.0417,13.9329],[76.9774,13.8271],[77.0646,13.7432],[77.1579,13.8064],[77.1808,13.8697],[77.3261,13.8339],[77.4331,13.8436],[77.4698,13.7583],[77.4561,13.6827],[77.7818,13.8188],[77.8139,13.9150],[77.9699,13.9590],[78.0005,13.8724],[78.1152,13.8628],[78.1213,13.7157],[78.2038,13.6291],[78.1962,13.5686],[78.4011,13.5879],[78.3644,13.3624],[78.4439,13.3088],[78.5861,13.2758],[78.4669,12.9747],[78.3552,12.9403],[78.3124,12.8592],[78.2528,12.8606],[78.2314,12.7603],[78.1335,12.7822],[78.0570,12.8524],[77.9791,12.8359],[77.9286,12.8909],[77.8307,12.8661],[77.7925,12.7493],[77.7390,12.6723],[77.6013,12.6681],[77.5876,12.5142],[77.6350,12.4881],[77.6151,12.3671],[77.5509,12.2915],[77.4714,12.2433],[77.5050,12.1980],[77.6105,12.2062],[77.7466,12.1554],[77.7757,12.1127],[77.7084,12.0358],[77.6763,11.9519],[77.4943,11.9436],[77.4285,11.7677],[77.2925,11.8089],[77.1105,11.7732],[77.0126,11.8144],[76.9086,11.7952],[76.8352,11.6549],[76.8475,11.5945],[76.5600,11.6220],[76.5110,11.7044],[76.4178,11.6714],[76.4132,11.7581],[76.3184,11.7512],[76.2067,11.8612],[76.1134,11.8584],[76.1134,11.9794],[76.0033,11.9313]]]}},{"type":"Feature","properties":{"id":"GA","name":"Goa"},"geometry":{"type":"Polygon","coordinates":[[[74.2754,15.3915],[74.3228,15.3682],[74.3258,15.2829],[74.2601,15.2417],[74.3167,15.1867],[74.2723,15.0973],[74.2968,15.0410],[74.2020,14.9255],[74.0857,14.9007],[73.9818,15.0547],[73.8839,15.3544],[73.9344,15.4328],[73.7661,15.4946],[73.6851,15.7283],[73.9389,15.7421],[73.9909,15.6115],[74.2371,15.6679],[74.2784,15.5221],[74.2509,15.4919],[74.2754,15.3915]]]}},{"type":"Feature","properties":{"id":"KL","name":"Kerala"},"geometry":{"type":"Polygon","coordinates":[[[76.8994,10.2527],[76.9820,10.2197],[77.0906,10.3146],[77.1808,10.3572],[77.2879,10.2321],[77.2634,10.0286],[77.2129,9.8774],[77.2466,9.7990],[77.1671,9.6121],[77.2695,9.5722],[77.3184,9.6024],[77.4026,9.5255],[77.2817,9.2986],[77.2680,9.1529],[77.1487,9.0099],[77.1931,8.9261],[77.2557,8.8793],[77.1701,8.7418],[77.2695,8.5782],[77.2619,8.5068],[77.0982,8.2923],[76.9591,8.4215],[76.6823,8.7762],[76.5477,8.9027],[76.4789,9.1227],[76.3199,9.4828],[76.2801,9.7894],[76.1670,10.1812],[76.2144,10.1936],[76.1624,10.1840],[76.1012,10.3819],[75.9101,10.7930],[75.8260,11.1229],[75.6975,11.4254],[75.6180,11.4776],[75.5538,11.7017],[75.3856,11.8570],[75.3565,11.8598],[75.2510,12.0083],[75.2005,12.0069],[74.8687,12.7589],[74.9818,12.7383],[75.1118,12.6805],[75.2800,12.5238],[75.4161,12.4990],[75.3657,12.4124],[75.4223,12.3726],[75.4146,12.2901],[75.4850,12.2901],[75.5767,12.1567],[75.6363,12.1485],[75.7938,12.0564],[75.8703,11.9519],[76.0033,11.9313],[76.1134,11.9794],[76.1134,11.8584],[76.2067,11.8612],[76.3184,11.7512],[76.4132,11.7581],[76.4178,11.6714],[76.3780,11.6013],[76.2343,11.5271],[76.4606,11.3882],[76.5477,11.3594],[76.5217,11.2700],[76.4422,11.2013],[76.6288,11.1944],[76.7068,11.2398],[76.6945,11.1669],[76.7542,11.0789],[76.6563,10.9387],[76.8306,10.8700],[76.9071,10.7820],[76.8383,10.5964],[76.8153,10.4232],[76.8337,10.3393],[76.8994,10.2527]],[[75.5415,11.7388],[75.5369,11.7196],[75.5553,11.7223],[75.5415,11.7388]]]}},{"type":"Feature","properties":{"id":"TG","name":"Telangana"},"geometry":{"type":"Polygon","coordinates":[[[77.2879,16.4089],[77.2420,16.4735],[77.4163,16.5175],[77.4530,16.6164],[77.4255,16.7209],[77.4760,16.7883],[77.4591,16.8845],[77.4974,17.0426],[77.4637,17.1100],[77.3643,17.1581],[77.3796,17.2227],[77.4836,17.3547],[77.5127,17.4303],[77.6855,17.5114],[77.4438,17.5843],[77.4530,17.6942],[77.5371,17.7795],[77.5861,17.9073],[77.6564,17.9692],[77.5478,18.0558],[77.5983,18.0929],[77.5631,18.1960],[77.6013,18.2758],[77.5509,18.2923],[77.5249,18.3720],[77.5845,18.4462],[77.5968,18.5493],[77.7390,18.5562],[77.7298,18.6662],[77.7879,18.6827],[77.8399,18.8050],[77.9485,18.8435],[77.8430,18.9082],[77.7971,19.0731],[77.8598,19.1804],[77.8628,19.3041],[77.9439,19.3426],[78.0418,19.2711],[78.1748,19.2381],[78.2115,19.4278],[78.3094,19.4814],[78.3063,19.6065],[78.2757,19.6918],[78.3430,19.7138],[78.3644,19.7811],[78.3063,19.9117],[78.3812,19.8801],[78.4317,19.8141],[78.5754,19.8182],[78.8415,19.7619],[78.8599,19.6890],[78.9562,19.6560],[78.9363,19.5502],[79.0969,19.5323],[79.1902,19.4594],[79.2529,19.5928],[79.3660,19.5763],[79.4715,19.5007],[79.7437,19.6093],[79.9441,19.4704],[79.9777,19.3989],[79.9288,19.1584],[79.8584,19.1020],[79.9395,19.0346],[79.9609,18.8655],[79.9135,18.8257],[80.0190,18.7707],[80.1184,18.6799],[80.2759,18.7198],[80.3722,18.6112],[80.4548,18.6305],[80.6368,18.5232],[80.7056,18.4394],[80.7484,18.3088],[80.7561,18.1699],[80.8524,18.2057],[80.8662,18.1397],[80.9793,18.1658],[80.9701,18.0476],[81.0160,17.7946],[81.0848,17.7974],[81.0588,17.7327],[80.9732,17.7795],[80.8860,17.7355],[80.9105,17.6379],[81.0206,17.5197],[81.3096,17.4097],[81.2745,17.3176],[81.1903,17.3244],[81.1735,17.2310],[80.9946,17.1911],[80.9411,17.2186],[80.8799,17.1608],[80.8769,17.0701],[80.8448,17.0399],[80.6995,17.0839],[80.5802,17.1526],[80.5053,17.0687],[80.3631,16.9766],[80.5343,16.9615],[80.6016,16.9189],[80.5634,16.8323],[80.5695,16.7677],[80.3218,16.8790],[80.3065,16.9739],[80.1872,17.0206],[80.0557,16.9711],[80.0389,16.9175],[80.0725,16.8172],[80.0557,16.7443],[79.9486,16.6357],[79.8768,16.6975],[79.7927,16.7250],[79.4471,16.6192],[79.4180,16.5807],[79.2575,16.5656],[79.2192,16.5120],[79.2146,16.2260],[79.1581,16.2095],[79.0296,16.2411],[78.9042,16.1834],[78.9226,16.1229],[78.7406,16.0088],[78.6014,16.0844],[78.5510,16.0432],[78.4103,16.0748],[78.2558,16.0088],[78.1748,15.8576],[78.0830,15.8411],[77.8873,15.9057],[77.8032,15.8741],[77.6595,15.8851],[77.5142,15.9277],[77.5004,16.2219],[77.5937,16.3429],[77.4897,16.3855],[77.4148,16.3676],[77.2879,16.4089]]]}},{"type":"Feature","properties":{"id":"WB","name":"West Bengal"},"geometry":{"type":"MultiPolygon","coordinates":[[[[88.1252,21.6742],[88.0319,21.6879],[88.1038,21.8419],[88.1665,21.8226],[88.1711,21.7374],[88.1252,21.6742]]],[[[88.1864,22.1045],[88.0640,22.0178],[87.9555,21.8309],[87.7888,21.6989],[87.6741,21.6508],[87.4845,21.6150],[87.4417,21.7676],[87.2826,21.8034],[87.2490,21.8543],[87.2429,21.9642],[87.1083,21.9244],[87.1007,21.8639],[87.0013,21.9134],[87.0288,22.0385],[86.9646,22.0852],[86.8376,22.0976],[86.7275,22.2158],[86.8331,22.3258],[86.8453,22.4000],[86.7642,22.4262],[86.8009,22.4880],[86.7658,22.5760],[86.6587,22.5760],[86.6419,22.6571],[86.4186,22.7905],[86.4355,22.9266],[86.5012,22.9939],[86.2413,22.9967],[86.0440,23.1451],[85.8850,23.1671],[85.8192,23.2689],[85.8834,23.3500],[85.8590,23.4297],[85.8850,23.4833],[86.0394,23.4985],[86.0822,23.5658],[86.1587,23.5589],[86.1770,23.4696],[86.3101,23.4118],[86.3651,23.5315],[86.4859,23.6359],[86.7122,23.6992],[86.8009,23.6992],[86.8269,23.7652],[86.8009,23.8339],[86.9156,23.8820],[87.0854,23.8119],[87.1297,23.8531],[87.2337,23.8559],[87.2949,23.9013],[87.2337,24.0250],[87.3362,24.0346],[87.4401,23.9824],[87.6313,24.1638],[87.6389,24.2546],[87.7062,24.2601],[87.8010,24.3824],[87.7934,24.5831],[87.8897,24.5653],[87.9081,24.7220],[87.8393,24.7454],[87.8913,24.8553],[87.9601,24.9213],[87.9539,24.9736],[87.7949,25.0877],[87.7781,25.2499],[87.7108,25.2581],[87.7628,25.2650],[87.8178,25.2416],[87.8469,25.2980],[87.7842,25.3406],[87.7674,25.4162],[87.8668,25.4974],[87.9601,25.5386],[88.0671,25.4836],[88.0212,25.5963],[88.0503,25.7008],[87.9677,25.7256],[87.8928,25.8658],[87.8270,25.8905],[87.8224,25.9359],[87.8500,26.0390],[87.9754,26.1435],[88.0732,26.1751],[88.1466,26.2507],[88.2797,26.3305],[88.2399,26.4583],[88.1099,26.5477],[88.1604,26.6370],[88.1864,26.7717],[88.1206,26.9505],[87.9922,27.1086],[88.0381,27.2199],[88.0962,27.1333],[88.1543,27.1099],[88.2812,27.1319],[88.4249,27.0714],[88.5320,27.1759],[88.5977,27.1883],[88.8653,27.1086],[88.8684,26.9656],[88.9204,26.9945],[89.0886,26.8886],[89.0901,26.8405],[89.1284,26.8061],[89.2553,26.8075],[89.3746,26.8542],[89.4541,26.7979],[89.5474,26.8130],[89.7630,26.6989],[89.8517,26.6975],[89.8700,26.6137],[89.8425,26.3827],[89.7813,26.3524],[89.7003,26.2177],[89.7293,26.1710],[89.6345,26.2287],[89.6085,26.1531],[89.6498,26.0638],[89.5412,26.0060],[89.3486,26.0101],[89.2293,26.1242],[89.1544,26.1394],[89.0963,26.3909],[88.9831,26.4473],[88.9097,26.3799],[88.9861,26.3497],[88.9265,26.2837],[88.7598,26.3291],[88.4203,26.5628],[88.4005,26.6439],[88.3332,26.4968],[88.4846,26.4611],[88.5152,26.3648],[88.4020,26.3305],[88.3515,26.2218],[88.1787,26.1490],[88.0931,25.9304],[88.1007,25.8300],[88.1436,25.7943],[88.2674,25.7819],[88.4540,25.6637],[88.4463,25.5950],[88.6467,25.4781],[88.8118,25.5235],[88.8393,25.3640],[88.9877,25.2733],[88.9097,25.1798],[88.4356,25.2004],[88.4525,25.0794],[88.3944,24.9694],[88.2781,24.8897],[88.2261,24.9598],[88.1405,24.9145],[88.1742,24.8608],[88.0686,24.7701],[88.0273,24.6904],[88.1329,24.5103],[88.3347,24.4429],[88.3821,24.3962],[88.5595,24.3082],[88.6834,24.3247],[88.7415,24.2546],[88.7461,24.1473],[88.7002,24.0965],[88.7430,24.0346],[88.7323,23.9109],[88.6069,23.8614],[88.5641,23.7129],[88.5931,23.6167],[88.7231,23.5122],[88.7629,23.4462],[88.7094,23.2318],[88.8103,23.2551],[88.9418,23.2056],[88.8577,22.9678],[88.9693,22.8441],[88.9127,22.7575],[88.9632,22.6929],[88.9265,22.6502],[88.9999,22.4289],[88.9953,22.2873],[89.0657,22.2076],[89.0687,21.9491],[89.0076,21.9024],[88.9326,21.9422],[88.8531,21.9230],[88.7629,21.9546],[88.7629,22.0151],[88.6329,21.9546],[88.5320,21.8529],[88.4448,21.9175],[88.3913,21.8969],[88.3592,21.8048],[88.2674,21.7278],[88.3026,21.6700],[88.2598,21.5559],[88.2124,21.7828],[88.1451,21.9546],[88.2078,22.0261],[88.2185,22.1031],[88.1833,22.1869],[88.0824,22.2612],[87.9983,22.2447],[88.0151,22.2021],[88.1359,22.1856],[88.1864,22.1045]]],[[[89.0381,21.6109],[89.0152,21.7786],[89.0932,21.6522],[89.0381,21.6109]]],[[[88.7767,21.8680],[88.8088,21.6687],[88.7461,21.6618],[88.6910,21.7511],[88.7155,21.9051],[88.7767,21.8680]]],[[[88.9479,21.7690],[88.8210,21.9271],[88.8822,21.9134],[88.9433,21.9147],[88.9479,21.7690]]]]}},{"type":"Feature","properties":{"id":"DN","name":"Dadra and Nagar Haveli and Daman and Diu"},"geometry":{"type":"MultiPolygon","coordinates":[[[[73.0428,20.3255],[73.1667,20.2884],[73.1346,20.1990],[73.2110,20.1207],[73.1376,20.0863],[72.9648,20.1276],[72.9327,20.2953],[73.0428,20.3255]]],[[[72.8869,20.4616],[72.8288,20.3681],[72.8364,20.4534],[72.8869,20.4616]]],[[[70.9203,20.7421],[70.9998,20.7421],[70.9769,20.7022],[70.9203,20.7421]]]]}},{"type":"Feature","properties":{"id":"PY","name":"Puducherry"},"geometry":{"type":"MultiPolygon","coordinates":[[[[79.8493,10.8273],[79.8187,10.8796],[79.7239,10.9291],[79.7483,10.9964],[79.8508,10.9854],[79.8493,10.8273]]],[[[75.5553,11.7223],[75.5369,11.7196],[75.5415,11.7388],[75.5553,11.7223]]],[[[79.8080,11.8447],[79.6856,11.8804],[79.7850,11.9601],[79.8401,11.9560],[79.8080,11.8447]]],[[[82.2669,16.6948],[82.1996,16.7209],[82.1859,16.7374],[82.2700,16.7223],[82.2669,16.6948]]]]}},{"type":"Feature","properties":{"id":"LD","name":"Lakshadweep"},"geometry":{"type":"Polygon","coordinates":[[[73.0428,8.2634],[73.0184,8.2758],[73.0535,8.2731],[73.0428,8.2634]]]}},{"type":"Feature","properties":{"id":"AR","name":"Arunachal Pradesh"},"geometry":{"type":"Polygon","coordinates":[[[92.6730,27.0316],[92.5629,26.9573],[92.4467,26.9587],[92.1944,26.8900],[92.1133,26.8927],[92.1042,27.0068],[92.0338,27.0646],[92.0246,27.1622],[92.0705,27.2763],[92.0552,27.4000],[92.0139,27.4894],[91.9405,27.4605],[91.6546,27.4825],[91.5644,27.5842],[91.5598,27.6337],[91.6255,27.7052],[91.6301,27.8014],[91.8259,27.8097],[91.8809,27.7217],[91.9864,27.7698],[92.0568,27.7588],[92.1577,27.8372],[92.2571,27.8619],[92.3091,27.7794],[92.5614,27.8207],[92.7342,27.9760],[92.6623,28.0668],[92.6883,28.1259],[92.8015,28.2015],[92.8963,28.2042],[93.0247,28.3032],[93.2235,28.3417],[93.1822,28.4325],[93.2786,28.5039],[93.3397,28.6400],[93.4927,28.6840],[93.6226,28.6565],[93.9621,28.7129],[93.9973,28.8408],[94.1579,28.9549],[94.1869,29.0387],[94.2909,29.1473],[94.3597,29.1528],[94.4331,29.2271],[94.5600,29.2284],[94.5799,29.2807],[94.6793,29.3274],[94.8735,29.1831],[95.2528,29.1088],[95.2696,29.0497],[95.4546,29.0346],[95.5387,29.2119],[95.5877,29.2161],[95.8828,29.3893],[95.9577,29.3810],[96.0892,29.4594],[96.1764,29.3618],[96.2437,29.2326],[96.3935,29.2532],[96.3461,29.1679],[96.2177,29.1350],[96.1504,29.0497],[96.2483,28.9397],[96.3461,29.0291],[96.4364,29.0346],[96.5189,28.9672],[96.5373,28.8806],[96.6076,28.7940],[96.5847,28.7170],[96.4715,28.6840],[96.4929,28.6332],[96.3263,28.5108],[96.3721,28.4819],[96.3140,28.3830],[96.5082,28.4132],[96.5786,28.4572],[96.6627,28.4599],[96.7804,28.3637],[96.8966,28.3802],[96.9945,28.3101],[97.0893,28.3623],[97.1704,28.2922],[97.2208,28.2922],[97.3707,28.2180],[97.3279,28.1548],[97.3279,28.0571],[97.3875,28.0035],[97.3753,27.9087],[97.2529,27.9004],[97.1566,27.8138],[97.0312,27.7492],[96.9028,27.6131],[96.8615,27.6310],[96.9349,27.5086],[96.9028,27.4523],[97.1642,27.1416],[97.0633,27.0921],[96.9838,27.1539],[96.8599,27.1897],[96.8844,27.2598],[96.7972,27.3464],[96.6061,27.3656],[96.5082,27.2983],[96.3064,27.2942],[96.0892,27.2227],[96.0219,27.1801],[95.9455,27.0508],[95.8017,27.0151],[95.7452,26.8955],[95.6840,26.9037],[95.6075,26.8130],[95.4959,26.8171],[95.4271,26.6975],[95.3032,26.6508],[95.2344,26.6824],[95.2023,26.8460],[95.2298,26.9230],[95.1962,27.0343],[95.2589,27.0302],[95.3690,27.1099],[95.3766,27.0962],[95.4485,27.1319],[95.4837,27.2419],[95.5341,27.2639],[95.6335,27.2309],[95.7421,27.2667],[95.8568,27.2708],[95.9592,27.3107],[96.0158,27.3684],[95.9409,27.4371],[95.8828,27.4358],[95.8736,27.5444],[95.7803,27.6213],[95.7742,27.7327],[95.9699,27.9595],[95.8186,27.9719],[95.6060,27.9554],[95.5143,27.8798],[95.3797,27.8386],[95.3093,27.8674],[95.1365,27.8152],[94.8521,27.7272],[94.4622,27.5554],[94.2374,27.6323],[94.2129,27.6062],[94.2664,27.5196],[93.9912,27.3285],[93.8061,27.1484],[93.8291,27.0673],[93.6655,26.9683],[93.0217,26.9133],[92.8871,27.0000],[92.6730,27.0316]]]}},{"type":"Feature","properties":{"id":"AS","name":"Assam"},"geometry":{"type":"Polygon","coordinates":[[[92.5323,24.1776],[92.4360,24.1542],[92.4222,24.2504],[92.2953,24.2450],[92.2189,24.2862],[92.2601,24.3591],[92.2143,24.5089],[92.2540,24.6780],[92.2953,24.7371],[92.2341,24.8993],[92.2984,24.9158],[92.3855,24.8512],[92.5155,24.8801],[92.4253,25.0299],[92.4803,25.1083],[92.6210,25.1152],[92.6638,25.1770],[92.7434,25.2073],[92.7923,25.2829],[92.6531,25.4341],[92.5690,25.4657],[92.6608,25.5716],[92.5843,25.5510],[92.5048,25.6170],[92.4436,25.7201],[92.2250,25.7159],[92.1516,25.6719],[92.1516,25.8163],[92.2020,25.9070],[92.1638,25.9703],[92.2739,26.0651],[92.1730,26.0761],[92.1332,26.0445],[91.8671,26.0418],[91.8259,26.1187],[91.7234,26.0349],[91.7219,25.9661],[91.5797,26.0335],[91.4451,25.8397],[91.3350,25.8410],[91.2218,25.7228],[91.1469,25.8507],[91.0077,25.8245],[91.0261,25.8864],[90.9481,25.9483],[90.7172,25.9551],[90.6316,25.9194],[90.4343,25.9909],[90.1866,25.9441],[90.1223,25.9593],[89.8991,25.7269],[90.0199,25.6073],[89.8777,25.5496],[89.8715,25.4767],[89.8517,25.4657],[89.8823,25.6170],[89.8272,25.7324],[89.8425,25.8823],[89.8868,25.9455],[89.7003,26.2177],[89.7813,26.3524],[89.8425,26.3827],[89.8700,26.6137],[89.8593,26.7346],[90.0489,26.7305],[90.1942,26.7731],[90.2309,26.8584],[90.3364,26.8625],[90.4175,26.9051],[90.5459,26.8171],[90.7172,26.7690],[91.0536,26.7814],[91.0980,26.8226],[91.3365,26.7800],[91.4084,26.8405],[91.4955,26.7910],[91.6255,26.8212],[91.7035,26.8130],[91.8931,26.9188],[91.9834,26.8584],[92.0568,26.8460],[92.1133,26.8927],[92.1944,26.8900],[92.4467,26.9587],[92.5629,26.9573],[92.6730,27.0316],[92.8871,27.0000],[93.0217,26.9133],[93.6655,26.9683],[93.8291,27.0673],[93.8061,27.1484],[93.9912,27.3285],[94.2664,27.5196],[94.2129,27.6062],[94.2374,27.6323],[94.4622,27.5554],[94.8521,27.7272],[95.1365,27.8152],[95.3093,27.8674],[95.3797,27.8386],[95.5143,27.8798],[95.6060,27.9554],[95.9699,27.9595],[95.7742,27.7327],[95.7803,27.6213],[95.8736,27.5444],[95.8828,27.4358],[95.9409,27.4371],[96.0158,27.3684],[95.9592,27.3107],[95.8568,27.2708],[95.7421,27.2667],[95.6335,27.2309],[95.5341,27.2639],[95.4837,27.2419],[95.4485,27.1319],[95.3766,27.0962],[95.3690,27.1099],[95.2589,27.0302],[95.1962,27.0343],[95.1014,26.9615],[94.9821,26.9133],[94.9240,26.9491],[94.7359,26.7498],[94.5860,26.7250],[94.4025,26.6109],[94.4010,26.5339],[94.3138,26.4611],[94.2848,26.5614],[94.1839,26.4556],[94.1640,26.3511],[94.1043,26.3195],[94.0004,26.1724],[93.9545,25.9689],[93.9789,25.9167],[93.8811,25.8438],[93.7771,25.8493],[93.7756,25.9689],[93.6808,25.9043],[93.7022,25.8520],[93.5431,25.7311],[93.5125,25.6747],[93.4269,25.6321],[93.3290,25.5427],[93.4560,25.4341],[93.4697,25.3063],[93.3810,25.2403],[93.3443,25.1234],[93.2465,24.9722],[93.2480,24.9145],[93.1746,24.7976],[93.1088,24.8113],[93.0874,24.5721],[93.0492,24.5446],[93.0094,24.4127],[92.8963,24.3907],[92.7999,24.4195],[92.7617,24.5130],[92.6898,24.3536],[92.6256,24.3316],[92.6119,24.2559],[92.5507,24.2477],[92.5323,24.1776]]]}},{"type":"Feature","properties":{"id":"NL","name":"Nagaland"},"geometry":{"type":"Polygon","coordinates":[[[93.4269,25.6321],[93.5125,25.6747],[93.5431,25.7311],[93.7022,25.8520],[93.6808,25.9043],[93.7756,25.9689],[93.7771,25.8493],[93.8811,25.8438],[93.9789,25.9167],[93.9545,25.9689],[94.0004,26.1724],[94.1043,26.3195],[94.1640,26.3511],[94.1839,26.4556],[94.2848,26.5614],[94.3138,26.4611],[94.4010,26.5339],[94.4025,26.6109],[94.5860,26.7250],[94.7359,26.7498],[94.9240,26.9491],[94.9821,26.9133],[95.1014,26.9615],[95.1962,27.0343],[95.2298,26.9230],[95.2023,26.8460],[95.2344,26.6824],[95.0616,26.4501],[95.1228,26.3483],[95.1167,26.1077],[95.1855,26.0734],[95.1258,25.9868],[95.0142,25.8905],[95.0402,25.7421],[94.9362,25.6678],[94.8078,25.4932],[94.6747,25.4451],[94.5539,25.5042],[94.5509,25.5798],[94.4882,25.6046],[94.4163,25.5358],[94.3215,25.5029],[94.2083,25.4960],[94.1900,25.5482],[94.1074,25.5221],[94.0065,25.5675],[93.7649,25.5386],[93.8046,25.4630],[93.6670,25.3104],[93.6058,25.1990],[93.5018,25.2430],[93.4697,25.3063],[93.4560,25.4341],[93.3290,25.5427],[93.4269,25.6321]]]}},{"type":"Feature","properties":{"id":"ML","name":"Meghalaya"},"geometry":{"type":"Polygon","coordinates":[[[91.2524,25.1977],[91.0811,25.2018],[90.8548,25.1592],[90.7799,25.1839],[90.6927,25.1592],[90.5107,25.1688],[90.4450,25.1440],[90.3318,25.1922],[90.1116,25.2238],[89.9740,25.2994],[89.8348,25.2966],[89.8150,25.3887],[89.8715,25.4767],[89.8777,25.5496],[90.0199,25.6073],[89.8991,25.7269],[90.1223,25.9593],[90.1866,25.9441],[90.4343,25.9909],[90.6316,25.9194],[90.7172,25.9551],[90.9481,25.9483],[91.0261,25.8864],[91.0077,25.8245],[91.1469,25.8507],[91.2218,25.7228],[91.3350,25.8410],[91.4451,25.8397],[91.5797,26.0335],[91.7219,25.9661],[91.7234,26.0349],[91.8259,26.1187],[91.8671,26.0418],[92.1332,26.0445],[92.1730,26.0761],[92.2739,26.0651],[92.1638,25.9703],[92.2020,25.9070],[92.1516,25.8163],[92.1516,25.6719],[92.2250,25.7159],[92.4436,25.7201],[92.5048,25.6170],[92.5843,25.5510],[92.6608,25.5716],[92.5690,25.4657],[92.6531,25.4341],[92.7923,25.2829],[92.7434,25.2073],[92.6638,25.1770],[92.6210,25.1152],[92.4803,25.1083],[92.4253,25.0299],[92.0812,25.1839],[91.7463,25.1715],[91.6423,25.1248],[91.6026,25.1743],[91.4925,25.1344],[91.3793,25.1770],[91.3549,25.2334],[91.2524,25.1977]]]}},{"type":"Feature","properties":{"id":"MN","name":"Manipur"},"geometry":{"type":"Polygon","coordinates":[[[93.5049,23.9425],[93.4162,24.0717],[93.3780,24.0882],[93.2526,24.0209],[92.9758,24.1157],[93.0232,24.2340],[93.0094,24.4127],[93.0492,24.5446],[93.0874,24.5721],[93.1088,24.8113],[93.1746,24.7976],[93.2480,24.9145],[93.2465,24.9722],[93.3443,25.1234],[93.3810,25.2403],[93.4697,25.3063],[93.5018,25.2430],[93.6058,25.1990],[93.6670,25.3104],[93.8046,25.4630],[93.7649,25.5386],[94.0065,25.5675],[94.1074,25.5221],[94.1900,25.5482],[94.2083,25.4960],[94.4163,25.5358],[94.4882,25.6046],[94.5509,25.5798],[94.5539,25.5042],[94.6747,25.4451],[94.5753,25.2142],[94.6533,25.1152],[94.7359,25.1138],[94.7435,25.0368],[94.6870,24.8897],[94.6319,24.8388],[94.6289,24.7564],[94.5447,24.7110],[94.5340,24.6423],[94.3750,24.4938],[94.4071,24.4374],[94.2909,24.2326],[94.1563,23.8476],[94.0172,23.9274],[93.8933,23.9535],[93.8077,23.9260],[93.7404,24.0057],[93.6242,24.0112],[93.5049,23.9425]]]}},{"type":"Feature","properties":{"id":"TR","name":"Tripura"},"geometry":{"type":"Polygon","coordinates":[[[91.7586,23.2661],[91.8151,23.1451],[91.8060,23.0627],[91.7203,22.9871],[91.5766,22.9651],[91.5430,22.9994],[91.5078,23.1836],[91.4543,23.2606],[91.3197,23.2771],[91.2555,23.4861],[91.1607,23.5947],[91.1561,23.7418],[91.2264,23.7322],[91.2478,23.8298],[91.2188,23.8793],[91.2998,23.9975],[91.3732,24.0016],[91.4696,24.0621],[91.6301,24.1034],[91.6561,24.1858],[91.7555,24.1418],[91.7463,24.2450],[91.8595,24.1831],[91.9237,24.1088],[91.9421,24.2628],[91.9222,24.3384],[91.9711,24.3824],[92.0705,24.3769],[92.1393,24.4250],[92.1562,24.5254],[92.2143,24.5089],[92.2601,24.3591],[92.2189,24.2862],[92.2953,24.2450],[92.3305,24.1831],[92.3121,24.0525],[92.3244,23.9136],[92.2571,23.8133],[92.2647,23.7267],[92.1760,23.7074],[92.1195,23.7322],[92.0598,23.6428],[91.9375,23.6895],[91.9742,23.4806],[91.9421,23.4270],[91.8656,23.4462],[91.8044,23.5150],[91.8381,23.3706],[91.7586,23.2661]]]}},{"type":"Feature","properties":{"id":"AN","name":"Andaman and Nicobar Islands"},"geometry":{"type":"MultiPolygon","coordinates":[[[[92.7923,9.2381],[92.8259,9.1405],[92.7281,9.1268],[92.7204,9.2189],[92.7923,9.2381]]],[[[92.4329,10.5510],[92.3840,10.6706],[92.3779,10.7820],[92.5201,10.8975],[92.5859,10.7875],[92.5966,10.6816],[92.5308,10.5208],[92.4329,10.5510]]],[[[92.6394,11.5106],[92.6898,11.3745],[92.5981,11.3470],[92.5859,11.4006],[92.6394,11.5106]]],[[[92.7067,11.9739],[92.7908,11.8859],[92.7541,11.7017],[92.6608,11.6536],[92.7510,11.6096],[92.6654,11.5051],[92.5507,11.7196],[92.5354,11.9120],[92.6011,11.8488],[92.6226,12.1017],[92.6608,12.2145],[92.7556,12.1774],[92.7342,12.0839],[92.7816,12.0481],[92.7067,11.9739]]],[[[93.8000,6.7663],[93.7175,6.9918],[93.6670,7.0234],[93.6456,7.1265],[93.6746,7.1911],[93.8367,7.2406],[93.8688,7.2049],[93.9147,6.9492],[93.8780,6.7938],[93.8000,6.7663]]],[[[93.6089,7.3121],[93.7006,7.4455],[93.7435,7.3767],[93.7129,7.3121],[93.6364,7.2447],[93.6089,7.3121]]],[[[92.8106,12.3135],[92.8321,12.3011],[92.8718,12.3025],[92.8550,12.1595],[92.7694,12.1829],[92.7403,12.2461],[92.8106,12.3135]]],[[[92.7189,12.2997],[92.6990,12.3286],[92.7449,12.7231],[92.7296,12.8359],[92.7938,12.8620],[92.7877,13.0201],[92.8214,13.1122],[92.8412,13.3913],[92.8703,13.4724],[92.9330,13.4985],[92.9880,13.5741],[93.0431,13.5287],[93.0309,13.3445],[93.0645,13.2730],[93.0309,13.1782],[93.0339,13.0819],[92.9590,13.0160],[92.9116,13.0544],[92.8581,12.9019],[92.9238,12.8840],[92.9682,12.7396],[92.9559,12.6242],[92.9743,12.5430],[92.8733,12.3313],[92.8305,12.3025],[92.8091,12.3162],[92.7189,12.2997]]]]}},{"type":"Feature","properties":{"id":"UP","name":"Uttar Pradesh"},"geometry":{"type":"Polygon","coordinates":[[[78.7513,24.5996],[78.8828,24.6409],[78.9531,24.5474],[78.9149,24.4594],[78.9853,24.4415],[78.9914,24.4168],[78.9715,24.3481],[78.8063,24.1790],[78.7024,24.2271],[78.5861,24.3536],[78.5020,24.3907],[78.3889,24.2628],[78.3292,24.3274],[78.3690,24.3742],[78.2681,24.4498],[78.2757,24.6629],[78.1717,24.8760],[78.3461,25.0121],[78.3369,25.0849],[78.4470,25.1220],[78.3445,25.3283],[78.3399,25.4327],[78.3552,25.4520],[78.3950,25.4437],[78.4516,25.5716],[78.6580,25.5592],[78.7177,25.6046],[78.8109,25.6197],[78.7635,25.7201],[78.8859,25.9125],[78.9379,25.9524],[78.9486,26.0280],[79.0113,26.0830],[78.9944,26.1971],[79.1382,26.3387],[79.1351,26.4404],[78.9898,26.5793],[79.0067,26.6714],[78.8721,26.6975],[78.7803,26.7690],[78.5449,26.7635],[78.3950,26.8171],[78.3583,26.8694],[78.2222,26.8322],[78.2711,26.9202],[78.1488,26.9491],[78.1106,26.8955],[77.9867,26.8886],[77.7604,26.9326],[77.7222,26.8749],[77.5249,26.8185],[77.4545,26.7429],[77.3980,26.8309],[77.4897,26.9010],[77.6610,26.9711],[77.5509,27.1113],[77.6579,27.1704],[77.6457,27.2419],[77.4377,27.4564],[77.3399,27.5265],[77.3521,27.6516],[77.2833,27.7987],[77.3444,27.8496],[77.4209,27.8551],[77.5295,27.9265],[77.5417,27.9898],[77.4760,28.0846],[77.5050,28.3706],[77.2970,28.5672],[77.3414,28.6098],[77.2986,28.7088],[77.2083,28.7913],[77.2328,28.9191],[77.1671,29.0332],[77.1426,29.1666],[77.1548,29.2972],[77.1273,29.3494],[77.1059,29.6326],[77.1518,29.6876],[77.1197,29.7550],[77.1732,29.8045],[77.2267,29.9392],[77.5830,30.3076],[77.5753,30.4011],[77.6579,30.4011],[77.7222,30.3296],[77.9592,30.2416],[77.8598,30.1138],[77.8017,30.0959],[77.7160,29.8856],[77.8200,29.6739],[77.9271,29.7137],[78.0203,29.5817],[78.1304,29.6519],[78.2038,29.7371],[78.3354,29.7976],[78.5112,29.7247],[78.5326,29.6395],[78.6167,29.5584],[78.8002,29.4649],[78.9256,29.4388],[78.7605,29.2642],[78.8752,29.2051],[78.9272,29.1185],[79.0357,29.1693],[79.1535,29.1157],[79.1428,29.0676],[79.2590,28.9920],[79.4073,28.9521],[79.4226,28.8971],[79.5847,28.8463],[79.8202,28.8875],[79.9548,28.7225],[80.0297,28.7486],[80.0649,28.8366],[80.1199,28.8270],[80.2774,28.7115],[80.3141,28.6290],[80.4594,28.6249],[80.5527,28.6909],[80.6674,28.6428],[80.7148,28.5686],[81.0527,28.4050],[81.2133,28.3582],[81.2332,28.2895],[81.3203,28.1974],[81.4258,28.1712],[81.4778,28.0833],[81.8846,27.8564],[81.9611,27.9238],[82.0696,27.9238],[82.1216,27.8661],[82.2073,27.8441],[82.4489,27.6791],[82.6645,27.7231],[82.7058,27.7038],[82.7532,27.5870],[82.7318,27.4866],[82.9290,27.5004],[83.0346,27.4481],[83.1890,27.4536],[83.2915,27.3354],[83.3434,27.3354],[83.4092,27.4138],[83.3954,27.4797],[83.6141,27.4687],[83.8313,27.3698],[83.9934,27.1746],[83.9643,27.0838],[84.0499,27.0440],[84.0606,26.8872],[84.2594,26.8047],[84.3298,26.6838],[84.4185,26.6315],[84.2808,26.5999],[84.1126,26.6301],[84.0515,26.5518],[83.9154,26.5023],[83.9077,26.4473],[84.1570,26.3758],[84.1769,26.2645],[84.0866,26.2191],[84.0560,26.0995],[84.2961,25.9455],[84.3542,25.9593],[84.6249,25.7915],[84.6004,25.7324],[84.5576,25.6802],[84.3359,25.7434],[84.3191,25.6678],[84.2059,25.6692],[84.1402,25.7311],[84.0744,25.6953],[84.0805,25.6362],[83.9307,25.5578],[83.8465,25.4341],[83.7793,25.3984],[83.7410,25.4107],[83.6493,25.3393],[83.5377,25.3090],[83.3496,25.1839],[83.3511,25.0093],[83.3954,24.7811],[83.4887,24.7357],[83.5300,24.6436],[83.5239,24.5501],[83.4000,24.4979],[83.3801,24.3137],[83.4092,24.2669],[83.3297,24.1020],[83.2073,23.9219],[83.0911,23.8710],[82.9474,23.8710],[82.8128,23.9618],[82.6645,24.1281],[82.7440,24.1652],[82.7700,24.3701],[82.7134,24.3797],[82.7440,24.4965],[82.7975,24.5763],[82.7731,24.6423],[82.7073,24.6368],[82.6706,24.6972],[82.4183,24.6519],[82.4183,24.5941],[82.2975,24.6065],[82.2164,24.7935],[81.9427,24.8457],[81.8922,24.9887],[81.7928,25.0038],[81.6675,25.0616],[81.6262,25.1605],[81.5405,25.1880],[81.4992,25.1482],[81.3922,25.1317],[81.2775,25.1660],[81.2638,25.0533],[81.1598,24.9131],[81.1200,24.9035],[81.0344,24.9529],[80.9457,24.9667],[80.8600,24.9282],[80.8310,25.0327],[80.8784,25.0657],[80.8448,25.1867],[80.7239,25.1179],[80.7148,25.0657],[80.5924,25.0904],[80.5007,25.0409],[80.4777,24.9763],[80.4013,25.0698],[80.3417,25.0134],[80.2637,25.0244],[80.4303,25.1743],[80.4043,25.2430],[80.3111,25.2856],[80.3157,25.3887],[80.2208,25.3970],[80.0328,25.3420],[79.8554,25.1935],[79.8401,25.0987],[79.7483,25.1399],[79.6734,25.1207],[79.5694,25.1715],[79.4914,25.0794],[79.4058,25.1069],[79.3905,25.1702],[79.4364,25.2540],[79.3523,25.3296],[79.2804,25.3241],[79.2636,25.2733],[79.3232,25.1495],[79.2452,25.1138],[79.1305,25.1097],[79.0632,25.2224],[78.9302,25.2073],[78.8797,25.1578],[78.8706,25.1867],[78.9608,25.3448],[78.8797,25.3860],[78.9424,25.4919],[78.8843,25.5152],[78.7314,25.4575],[78.7742,25.3530],[78.6595,25.3832],[78.5127,25.2760],[78.6397,25.0712],[78.6320,24.9571],[78.6764,24.8980],[78.7696,24.8595],[78.7803,24.7055],[78.7513,24.5996]]]}},{"type":"Feature","properties":{"id":"RJ","name":"Rajasthan"},"geometry":{"type":"Polygon","coordinates":[[[74.5063,23.0847],[74.3855,23.1122],[74.3197,23.0599],[74.2478,23.1836],[74.1270,23.1754],[74.1393,23.2661],[73.9818,23.3376],[73.9588,23.3802],[73.8915,23.3349],[73.8304,23.4256],[73.7554,23.4545],[73.6270,23.4490],[73.6560,23.6208],[73.5719,23.6538],[73.5230,23.6071],[73.4741,23.7047],[73.3686,23.8147],[73.3777,23.9040],[73.4160,23.9246],[73.4053,24.0415],[73.3166,24.0539],[73.2432,24.0016],[73.2141,24.0772],[73.1254,24.1253],[73.0673,24.1941],[73.1514,24.3549],[73.0765,24.3962],[73.0872,24.4979],[73.0015,24.4800],[72.9587,24.3604],[72.7278,24.3673],[72.6835,24.4635],[72.5199,24.5007],[72.5000,24.4168],[72.3532,24.5639],[72.3348,24.6326],[72.1651,24.6216],[72.0580,24.7124],[71.6559,24.6395],[71.6085,24.6766],[71.4785,24.6794],[71.3776,24.6258],[71.2873,24.6161],[71.1115,24.6752],[70.9371,24.9392],[70.8882,25.1482],[70.7506,25.2774],[70.6650,25.3970],[70.6741,25.6761],[70.6084,25.7146],[70.5304,25.6829],[70.3866,25.6733],[70.2689,25.7132],[70.0992,25.9386],[70.0839,26.0830],[70.1404,26.1559],[70.1741,26.2507],[70.1741,26.5518],[70.0563,26.5999],[69.8866,26.5793],[69.7918,26.5985],[69.7199,26.6549],[69.5104,26.7429],[69.4844,26.8047],[69.5135,27.0096],[69.5869,27.1842],[69.8637,27.4028],[69.9340,27.4976],[70.0257,27.5622],[70.1328,27.8056],[70.3713,28.0118],[70.5074,28.0365],[70.5885,28.0104],[70.6772,27.9210],[70.6833,27.8276],[70.7582,27.7217],[70.9066,27.7093],[71.2048,27.8358],[71.3821,27.8729],[71.6666,27.8784],[71.8745,27.9554],[71.8807,27.9142],[71.9281,28.1218],[72.2064,28.3940],[72.2997,28.6689],[72.4036,28.7830],[72.9450,29.0277],[73.0046,29.1528],[73.0841,29.2353],[73.2829,29.5721],[73.3976,29.9461],[73.8059,30.0670],[73.9680,30.1935],[73.9756,30.1193],[73.9038,30.0505],[73.8946,29.9736],[74.5261,29.9406],[74.5613,29.8691],[74.4849,29.8141],[74.4803,29.7453],[74.6164,29.7522],[74.5751,29.5639],[74.6225,29.5309],[74.5843,29.4580],[74.6026,29.3645],[74.7876,29.3618],[74.8503,29.4030],[74.9375,29.3618],[74.9604,29.2807],[75.0507,29.2862],[75.0812,29.2284],[75.3458,29.2834],[75.4054,29.2601],[75.3917,29.0621],[75.4421,29.0580],[75.5278,28.9714],[75.4742,28.9260],[75.5201,28.8339],[75.5614,28.6125],[75.6226,28.6015],[75.6700,28.5191],[75.8932,28.3898],[76.0553,28.2207],[75.9988,28.1231],[76.0079,28.0585],[75.9728,27.9320],[75.9330,27.9279],[75.9712,27.8523],[76.0767,27.8413],[76.1761,27.7987],[76.2251,27.8331],[76.1685,27.9032],[76.1593,27.9980],[76.2602,28.0668],[76.3184,28.0159],[76.3596,28.1245],[76.3122,28.1781],[76.5431,28.0338],[76.5386,27.9747],[76.6685,28.0132],[76.6869,28.0874],[76.7955,28.1479],[76.8536,28.2207],[76.9698,28.1383],[76.9300,27.9939],[76.9423,27.8427],[76.8918,27.7327],[76.9774,27.6543],[77.0447,27.8207],[77.2833,27.7987],[77.3521,27.6516],[77.3399,27.5265],[77.4377,27.4564],[77.6457,27.2419],[77.6579,27.1704],[77.5509,27.1113],[77.6610,26.9711],[77.4897,26.9010],[77.3980,26.8309],[77.4545,26.7429],[77.5249,26.8185],[77.7222,26.8749],[77.7604,26.9326],[77.9867,26.8886],[78.1106,26.8955],[78.1488,26.9491],[78.2711,26.9202],[78.2222,26.8322],[78.1121,26.7951],[78.0892,26.6755],[78.0005,26.6948],[77.9041,26.6590],[77.8231,26.5504],[77.7451,26.5380],[77.5386,26.4116],[77.4377,26.4033],[77.2710,26.2672],[77.1197,26.2136],[76.9010,26.0926],[76.7878,25.9441],[76.7159,25.9015],[76.6425,25.9084],[76.5462,25.8383],[76.5034,25.6706],[76.5156,25.5276],[76.5936,25.4080],[76.6701,25.3489],[76.7618,25.3200],[76.8566,25.3324],[76.9453,25.2843],[77.0830,25.3365],[77.2236,25.3186],[77.2343,25.3791],[77.3139,25.4314],[77.3674,25.4107],[77.4117,25.2238],[77.3934,25.1193],[77.3123,25.0808],[77.2695,25.1152],[77.1747,25.1110],[77.0860,25.0547],[77.0004,25.0753],[76.8765,25.0409],[76.8612,24.9612],[76.9499,24.8691],[76.8046,24.8072],[76.8551,24.7440],[76.9469,24.7591],[77.0340,24.7082],[77.0692,24.5570],[76.9774,24.4608],[76.8612,24.5488],[76.8169,24.5336],[76.8444,24.4360],[76.8322,24.3577],[76.8627,24.2724],[76.9224,24.2120],[76.8811,24.1308],[76.8016,24.1171],[76.6762,24.1913],[76.6441,24.2697],[76.5707,24.2092],[76.3214,24.2450],[76.1180,24.1941],[76.1272,24.0882],[76.0416,24.0662],[75.9376,23.8971],[75.7938,23.8669],[75.6899,23.7473],[75.5828,23.7954],[75.5645,23.8559],[75.4620,23.9178],[75.5217,24.0250],[75.7021,23.9659],[75.8367,24.0566],[75.7510,24.1432],[75.8137,24.2450],[75.7281,24.3962],[75.7862,24.4525],[75.9009,24.4429],[75.9208,24.5433],[75.8244,24.6670],[75.7847,24.7619],[75.6088,24.6821],[75.5492,24.7027],[75.4559,24.6807],[75.1837,24.7481],[75.3366,24.9529],[75.3519,25.0189],[75.1913,25.0368],[75.1134,24.9667],[75.1164,24.8773],[75.0384,24.8457],[74.9589,24.8581],[74.9023,24.9296],[74.8259,24.8993],[74.8610,24.7990],[74.9773,24.7646],[74.9926,24.6931],[74.8886,24.6340],[74.8045,24.7357],[74.7723,24.6615],[74.7861,24.5859],[74.6974,24.4828],[74.8152,24.4690],[74.8549,24.4237],[74.7815,24.3384],[74.7540,24.2422],[74.8672,24.2436],[74.9084,24.2120],[74.8794,24.1735],[74.9742,24.0401],[74.9023,23.8738],[74.9406,23.7652],[74.9222,23.6662],[74.8473,23.5521],[74.7723,23.5425],[74.5720,23.4201],[74.5292,23.3211],[74.7341,23.2208],[74.5063,23.0847]]]}},{"type":"Feature","properties":{"id":"DL","name":"Delhi"},"geometry":{"type":"Polygon","coordinates":[[[77.2986,28.7088],[77.3414,28.6098],[77.2970,28.5672],[77.3475,28.5204],[77.2542,28.4833],[77.1747,28.4050],[77.0967,28.5094],[77.0065,28.5411],[76.8842,28.5026],[76.8459,28.5507],[76.8887,28.6318],[76.9713,28.6978],[76.9423,28.7981],[76.9683,28.8119],[77.1212,28.8586],[77.2160,28.8531],[77.2083,28.7913],[77.2986,28.7088]]]}},{"type":"Feature","properties":{"id":"HR","name":"Haryana"},"geometry":{"type":"Polygon","coordinates":[[[76.0553,28.2207],[75.8932,28.3898],[75.6700,28.5191],[75.6226,28.6015],[75.5614,28.6125],[75.5201,28.8339],[75.4742,28.9260],[75.5278,28.9714],[75.4421,29.0580],[75.3917,29.0621],[75.4054,29.2601],[75.3458,29.2834],[75.0812,29.2284],[75.0507,29.2862],[74.9604,29.2807],[74.9375,29.3618],[74.8503,29.4030],[74.7876,29.3618],[74.6026,29.3645],[74.5843,29.4580],[74.6225,29.5309],[74.5751,29.5639],[74.6164,29.7522],[74.4803,29.7453],[74.4849,29.8141],[74.5613,29.8691],[74.5261,29.9406],[74.6470,29.9117],[74.7051,29.9749],[74.8121,29.9928],[74.9268,29.9502],[74.9971,29.8677],[75.1179,29.8320],[75.1913,29.8443],[75.2418,29.7508],[75.1684,29.6670],[75.3030,29.5598],[75.3458,29.6959],[75.4605,29.8072],[75.5798,29.7398],[75.7786,29.8223],[75.9468,29.7288],[76.0492,29.7467],[76.0982,29.8100],[76.2144,29.8402],[76.1716,29.9268],[76.2541,30.0890],[76.4101,30.1454],[76.4667,30.0987],[76.5768,30.1014],[76.6425,30.1495],[76.5615,30.2416],[76.7114,30.3255],[76.7481,30.4286],[76.9117,30.4258],[76.8979,30.4451],[76.9254,30.6101],[76.8276,30.6816],[76.8459,30.8341],[76.7771,30.9043],[76.8689,30.8726],[76.9163,30.9001],[77.0248,30.7489],[77.1671,30.6843],[77.1716,30.6018],[77.1227,30.5633],[77.2083,30.4877],[77.4071,30.4272],[77.5234,30.4437],[77.5799,30.3791],[77.5830,30.3076],[77.2267,29.9392],[77.1732,29.8045],[77.1197,29.7550],[77.1518,29.6876],[77.1059,29.6326],[77.1273,29.3494],[77.1548,29.2972],[77.1426,29.1666],[77.1671,29.0332],[77.2328,28.9191],[77.2160,28.8531],[77.1212,28.8586],[76.9423,28.7981],[76.9713,28.6978],[76.8887,28.6318],[76.8459,28.5507],[76.8842,28.5026],[77.0065,28.5411],[77.0967,28.5094],[77.1747,28.4050],[77.2542,28.4833],[77.3475,28.5204],[77.5050,28.3706],[77.4760,28.0846],[77.5417,27.9898],[77.5295,27.9265],[77.4209,27.8551],[77.3444,27.8496],[77.2833,27.7987],[77.0447,27.8207],[76.9774,27.6543],[76.8918,27.7327],[76.9423,27.8427],[76.9300,27.9939],[76.9698,28.1383],[76.8536,28.2207],[76.7955,28.1479],[76.6869,28.0874],[76.6685,28.0132],[76.5386,27.9747],[76.5431,28.0338],[76.3122,28.1781],[76.3596,28.1245],[76.3184,28.0159],[76.2602,28.0668],[76.1593,27.9980],[76.1685,27.9032],[76.2251,27.8331],[76.1761,27.7987],[76.0767,27.8413],[75.9712,27.8523],[75.9330,27.9279],[75.9728,27.9320],[76.0079,28.0585],[75.9988,28.1231],[76.0553,28.2207]]]}},{"type":"Feature","properties":{"id":"SK","name":"Sikkim"},"geometry":{"type":"Polygon","coordinates":[[[88.9189,27.3203],[88.9036,27.2722],[88.8026,27.2474],[88.7919,27.1856],[88.7216,27.1388],[88.5977,27.1883],[88.5320,27.1759],[88.4249,27.0714],[88.2812,27.1319],[88.1543,27.1099],[88.0962,27.1333],[88.0381,27.2199],[88.0442,27.4784],[88.1971,27.7891],[88.2047,27.9417],[88.4678,28.0173],[88.4953,28.0544],[88.6191,28.0984],[88.7568,28.0764],[88.8439,27.9925],[88.8363,27.9293],[88.8883,27.8564],[88.8562,27.8166],[88.8485,27.6681],[88.7644,27.5650],[88.7935,27.4165],[88.9189,27.3203]]]}},{"type":"Feature","properties":{"id":"BR","name":"Bihar"},"geometry":{"type":"Polygon","coordinates":[[[85.0286,24.4154],[84.9032,24.3728],[84.8879,24.4635],[84.8023,24.5309],[84.5851,24.4003],[84.4965,24.2876],[84.4598,24.3371],[84.3420,24.3934],[84.3267,24.4897],[84.2564,24.5268],[84.0927,24.5336],[84.0086,24.6423],[83.9368,24.5488],[83.8725,24.5323],[83.7181,24.5034],[83.5025,24.5254],[83.5239,24.5501],[83.5300,24.6436],[83.4887,24.7357],[83.3954,24.7811],[83.3511,25.0093],[83.3496,25.1839],[83.5377,25.3090],[83.6493,25.3393],[83.7410,25.4107],[83.7793,25.3984],[83.8465,25.4341],[83.9307,25.5578],[84.0805,25.6362],[84.0744,25.6953],[84.1402,25.7311],[84.2059,25.6692],[84.3191,25.6678],[84.3359,25.7434],[84.5576,25.6802],[84.6249,25.7915],[84.3542,25.9593],[84.2961,25.9455],[84.0560,26.0995],[84.0866,26.2191],[84.1769,26.2645],[84.1570,26.3758],[83.9077,26.4473],[83.9154,26.5023],[84.0515,26.5518],[84.1126,26.6301],[84.2808,26.5999],[84.4185,26.6315],[84.3298,26.6838],[84.2594,26.8047],[84.0606,26.8872],[84.0499,27.0440],[83.9643,27.0838],[83.9934,27.1746],[83.8618,27.3354],[83.8313,27.4275],[84.0163,27.4371],[84.0973,27.5169],[84.2579,27.4509],[84.2793,27.3945],[84.6203,27.3395],[84.6891,27.2213],[84.6417,27.0481],[84.7579,27.0027],[84.8237,27.0206],[84.9613,26.9601],[85.0301,26.8749],[85.1922,26.8694],[85.1785,26.7979],[85.2549,26.7539],[85.3344,26.7415],[85.5439,26.8377],[85.6433,26.8529],[85.7290,26.8089],[85.7229,26.6741],[85.8590,26.5683],[85.9599,26.6508],[86.0287,26.6659],[86.1908,26.6150],[86.3407,26.6068],[86.5425,26.5380],[86.5700,26.4968],[86.7230,26.4253],[86.8468,26.4418],[87.0426,26.5600],[87.0915,26.4501],[87.1618,26.4047],[87.3683,26.4074],[87.4631,26.4404],[87.5885,26.3813],[87.6588,26.3799],[87.8484,26.4363],[88.0335,26.3923],[88.0992,26.4556],[88.1099,26.5477],[88.2399,26.4583],[88.2797,26.3305],[88.1466,26.2507],[88.0732,26.1751],[87.9754,26.1435],[87.8500,26.0390],[87.8224,25.9359],[87.8270,25.8905],[87.8928,25.8658],[87.9677,25.7256],[88.0503,25.7008],[88.0212,25.5963],[88.0671,25.4836],[87.9601,25.5386],[87.8668,25.4974],[87.7674,25.4162],[87.7842,25.3406],[87.8469,25.2980],[87.8178,25.2416],[87.7108,25.2581],[87.6925,25.3118],[87.5518,25.3310],[87.4784,25.1949],[87.3270,25.2238],[87.2949,25.0890],[87.1756,25.0574],[87.1450,25.0189],[87.1572,24.8815],[87.1098,24.8512],[87.0517,24.6271],[86.9523,24.6313],[86.9126,24.5474],[86.7535,24.6175],[86.6526,24.5708],[86.6113,24.6079],[86.4997,24.5103],[86.4523,24.3728],[86.3498,24.4470],[86.2764,24.4663],[86.3009,24.5611],[86.1327,24.6038],[86.1281,24.6986],[86.0547,24.7797],[85.9324,24.7385],[85.7382,24.8196],[85.6663,24.6615],[85.6770,24.5914],[85.5424,24.5323],[85.3742,24.5543],[85.3314,24.5103],[85.2886,24.5227],[85.0882,24.3701],[85.0286,24.4154]]]}},{"type":"Feature","properties":{"id":"JH","name":"Jharkhand"},"geometry":{"type":"Polygon","coordinates":[[[86.0318,22.1897],[86.0088,22.1155],[85.8972,21.9835],[85.7840,21.9849],[85.7489,22.0742],[85.6831,22.0577],[85.3971,22.1636],[85.2748,22.0825],[85.2381,22.0096],[85.1800,22.0728],[85.0286,22.1223],[85.0775,22.2571],[85.0699,22.4908],[84.9583,22.4454],[84.8099,22.4536],[84.7503,22.4193],[84.5347,22.4275],[84.4292,22.3519],[84.2915,22.3423],[84.1967,22.3780],[84.1111,22.4770],[84.0117,22.5279],[84.0102,22.5732],[84.0836,22.6379],[84.1524,22.6365],[84.2380,22.6915],[84.3237,22.8509],[84.3971,22.9279],[84.3741,22.9788],[84.1784,22.9802],[84.0637,23.1135],[84.0377,23.1713],[84.0744,23.3335],[83.9628,23.3857],[84.0148,23.5040],[84.0163,23.6346],[83.9383,23.5686],[83.7747,23.6098],[83.7059,23.8202],[83.5713,23.8628],[83.4321,24.0855],[83.3297,24.1020],[83.4092,24.2669],[83.3801,24.3137],[83.4000,24.4979],[83.5025,24.5254],[83.7181,24.5034],[83.8725,24.5323],[83.9368,24.5488],[84.0086,24.6423],[84.0927,24.5336],[84.2564,24.5268],[84.3267,24.4897],[84.3420,24.3934],[84.4598,24.3371],[84.4965,24.2876],[84.5851,24.4003],[84.8023,24.5309],[84.8879,24.4635],[84.9032,24.3728],[85.0286,24.4154],[85.0882,24.3701],[85.2886,24.5227],[85.3314,24.5103],[85.3742,24.5543],[85.5424,24.5323],[85.6770,24.5914],[85.6663,24.6615],[85.7382,24.8196],[85.9324,24.7385],[86.0547,24.7797],[86.1281,24.6986],[86.1327,24.6038],[86.3009,24.5611],[86.2764,24.4663],[86.3498,24.4470],[86.4523,24.3728],[86.4997,24.5103],[86.6113,24.6079],[86.6526,24.5708],[86.7535,24.6175],[86.9126,24.5474],[86.9523,24.6313],[87.0517,24.6271],[87.1098,24.8512],[87.1572,24.8815],[87.1450,25.0189],[87.1756,25.0574],[87.2949,25.0890],[87.3270,25.2238],[87.4784,25.1949],[87.5518,25.3310],[87.6925,25.3118],[87.7108,25.2581],[87.7781,25.2499],[87.7949,25.0877],[87.9539,24.9736],[87.9601,24.9213],[87.8913,24.8553],[87.8393,24.7454],[87.9081,24.7220],[87.8897,24.5653],[87.7934,24.5831],[87.8010,24.3824],[87.7062,24.2601],[87.6389,24.2546],[87.6313,24.1638],[87.4401,23.9824],[87.3362,24.0346],[87.2337,24.0250],[87.2949,23.9013],[87.2337,23.8559],[87.1297,23.8531],[87.0854,23.8119],[86.9156,23.8820],[86.8009,23.8339],[86.8269,23.7652],[86.8009,23.6992],[86.7122,23.6992],[86.4859,23.6359],[86.3651,23.5315],[86.3101,23.4118],[86.1770,23.4696],[86.1587,23.5589],[86.0822,23.5658],[86.0394,23.4985],[85.8850,23.4833],[85.8590,23.4297],[85.8834,23.3500],[85.8192,23.2689],[85.8850,23.1671],[86.0440,23.1451],[86.2413,22.9967],[86.5012,22.9939],[86.4355,22.9266],[86.4186,22.7905],[86.6419,22.6571],[86.6587,22.5760],[86.7658,22.5760],[86.8009,22.4880],[86.7642,22.4262],[86.8453,22.4000],[86.8331,22.3258],[86.7275,22.2158],[86.4966,22.3464],[86.4293,22.3162],[86.3590,22.3492],[86.2825,22.4481],[86.1189,22.4866],[86.0669,22.5568],[85.9629,22.4853],[86.0180,22.4262],[86.0287,22.3340],[85.9736,22.2474],[86.0318,22.1897]]]}},{"type":"Feature","properties":{"id":"LA","name":"Ladakh"},"geometry":{"type":"Polygon","coordinates":[[[77.1502,32.9774],[77.0096,32.9884],[76.9331,33.0283],[76.8857,33.1217],[76.8169,33.1602],[76.7725,33.2510],[76.5019,33.5163],[76.3092,33.5713],[76.2710,33.6428],[76.2648,33.7418],[76.1700,33.7954],[76.0477,33.9287],[76.0217,33.9975],[75.8642,33.9782],[75.6868,34.1597],[75.4131,34.2834],[75.3748,34.3879],[75.3198,34.4346],[75.3565,34.5295],[75.2388,34.6285],[75.1317,34.6463],[75.0201,34.6257],[74.9253,34.6628],[74.7326,34.6711],[74.5628,34.7687],[74.3197,34.7866],[74.4130,34.7989],[74.4573,34.8526],[74.5674,34.8732],[74.5873,35.0093],[74.4864,35.1096],[74.3809,35.0574],[74.2524,35.0368],[73.7952,35.2444],[73.7310,35.2169],[73.7004,35.3571],[73.7937,35.4602],[73.7845,35.5248],[73.6346,35.5716],[73.4068,35.5633],[73.1361,35.7187],[73.1529,35.8410],[73.0887,35.8822],[72.9281,35.8451],[72.9006,35.8809],[72.6896,35.8328],[72.5336,35.9166],[72.5948,36.0266],[72.5306,36.0733],[72.5948,36.2617],[72.7783,36.3098],[72.8823,36.3868],[72.8792,36.4431],[72.9908,36.4569],[73.1117,36.6095],[73.1254,36.6865],[73.4404,36.7442],[73.7004,36.6837],[73.8074,36.7153],[73.8625,36.7868],[73.7233,36.8336],[73.6897,36.9119],[73.8778,36.8941],[74.0552,36.8061],[74.1423,36.8391],[74.1683,36.9023],[74.2601,36.8858],[74.4283,36.9889],[74.5307,36.9862],[74.5858,37.0439],[74.7081,37.0769],[74.7341,37.0205],[74.8396,37.0219],[74.9207,36.9051],[75.0170,36.9752],[75.0950,36.9422],[75.2082,37.0357],[75.3427,37.0522],[75.3504,36.9807],[75.4223,36.9601],[75.4727,36.8102],[75.6149,36.7607],[75.7480,36.5875],[75.9223,36.5023],[76.0767,36.4734],[76.2541,36.3469],[76.3505,36.3593],[76.4315,36.3070],[76.4805,36.2108],[76.5997,36.1654],[76.6425,36.1833],[76.7190,36.0830],[76.8001,36.0472],[76.7221,35.9524],[76.8108,35.8438],[76.9346,35.7833],[77.1151,35.7970],[77.1655,35.7338],[77.4301,35.6540],[77.4637,35.5729],[77.4347,35.5166],[77.6121,35.4684],[77.7222,35.4753],[77.8170,35.5124],[77.8995,35.4671],[77.9653,35.5716],[78.0402,35.5867],[78.1366,35.5386],[78.1977,35.6692],[78.2711,35.7214],[78.3843,35.7351],[78.4225,35.7846],[78.5204,35.7626],[78.6641,35.8575],[78.8216,35.8548],[78.9593,35.8919],[79.0204,35.8479],[79.1305,35.8355],[79.1932,35.8864],[79.2146,35.9785],[79.3767,35.9950],[79.4211,35.8960],[79.8691,35.7819],[79.9976,35.8369],[80.1062,35.6802],[80.2897,35.6073],[80.3264,35.4698],[80.2239,35.2196],[80.1811,35.1660],[80.1734,35.0024],[80.0710,34.8278],[80.0679,34.7137],[79.9425,34.6807],[79.8584,34.6890],[79.7743,34.6271],[79.7927,34.4841],[79.5923,34.5006],[79.5067,34.4745],[79.5908,34.2820],[79.5052,34.2050],[79.4930,34.1349],[79.3538,34.0360],[79.1963,34.0511],[79.1336,34.0263],[79.0204,34.0511],[78.9042,33.9755],[78.9990,33.8036],[79.0449,33.7651],[79.1061,33.6167],[78.9883,33.6112],[78.9134,33.5740],[78.9317,33.4324],[78.9883,33.3335],[79.1091,33.2922],[79.2391,33.2977],[79.4532,33.2578],[79.3752,33.0846],[79.4211,32.9609],[79.6260,32.7396],[79.4471,32.5320],[79.3186,32.5925],[79.1932,32.4825],[79.1351,32.4770],[79.1137,32.3835],[79.0327,32.3862],[78.9807,32.3381],[78.8568,32.4399],[78.7758,32.5581],[78.7605,32.6543],[78.6611,32.6543],[78.4577,32.5801],[78.3981,32.5251],[78.3124,32.5732],[78.4057,32.6200],[78.3873,32.7574],[78.2191,32.6639],[78.1427,32.6818],[78.0983,32.6310],[78.0158,32.6200],[77.9179,32.6901],[77.9347,32.7258],[77.8108,32.9073],[77.7405,32.9691],[77.6029,32.9430],[77.4683,32.8578],[77.4056,32.8825],[77.3383,32.8165],[77.1502,32.9774]]]}},{"type":"Feature","properties":{"id":"JK","name":"Jammu and Kashmir"},"geometry":{"type":"Polygon","coordinates":[[[74.8687,32.4866],[74.6806,32.4921],[74.6378,32.6131],[74.6592,32.7877],[74.5139,32.7437],[74.4466,32.7890],[74.3824,32.7574],[74.1775,32.8825],[74.0597,32.9087],[73.9573,32.9870],[73.8288,33.0076],[73.6882,33.0874],[73.6270,33.0901],[73.6560,33.2083],[73.5643,33.3417],[73.6209,33.5740],[73.5612,33.6208],[73.5979,33.7129],[73.5597,33.7761],[73.5888,33.8834],[73.5215,33.9851],[73.4924,34.2202],[73.3900,34.3741],[73.4465,34.5735],[73.6178,34.5859],[73.7493,34.7866],[73.9634,34.8416],[74.0735,34.9392],[74.0659,35.0478],[74.1469,35.0973],[74.2524,35.0368],[74.3809,35.0574],[74.4864,35.1096],[74.5873,35.0093],[74.5674,34.8732],[74.4573,34.8526],[74.4130,34.7989],[74.3197,34.7866],[74.5628,34.7687],[74.7326,34.6711],[74.9253,34.6628],[75.0201,34.6257],[75.1317,34.6463],[75.2388,34.6285],[75.3565,34.5295],[75.3198,34.4346],[75.3748,34.3879],[75.4131,34.2834],[75.6868,34.1597],[75.8642,33.9782],[76.0217,33.9975],[76.0477,33.9287],[76.1700,33.7954],[76.2648,33.7418],[76.2710,33.6428],[76.3092,33.5713],[76.5019,33.5163],[76.7725,33.2510],[76.7481,33.1795],[76.6456,33.1616],[76.5691,33.2097],[76.4101,33.1864],[76.2924,33.1039],[76.2220,33.0214],[76.1119,33.0063],[76.0875,32.9568],[75.9544,32.8729],[75.8504,32.9293],[75.8015,32.8853],[75.9238,32.7478],[75.9177,32.6337],[75.8367,32.5113],[75.7281,32.4522],[75.6868,32.3904],[75.5966,32.3780],[75.5125,32.3079],[75.3412,32.3464],[75.1072,32.4605],[74.9467,32.4467],[74.8886,32.5210],[74.8687,32.4866]]]}},{"type":"Feature","properties":{"id":"HP","name":"Himachal Pradesh"},"geometry":{"type":"Polygon","coordinates":[[[76.9163,30.9001],[76.8689,30.8726],[76.6242,30.9991],[76.6456,31.2095],[76.5875,31.2741],[76.4973,31.2699],[76.4315,31.3263],[76.3918,31.4129],[76.2893,31.3071],[76.2006,31.3029],[76.1211,31.4982],[76.0171,31.6315],[75.9605,31.7814],[75.9605,31.8570],[75.9101,31.9504],[75.6547,32.0769],[75.5981,32.0824],[75.6608,32.1374],[75.6379,32.2515],[75.7709,32.2886],[75.8734,32.3959],[75.9315,32.3945],[75.8367,32.5113],[75.9177,32.6337],[75.9238,32.7478],[75.8015,32.8853],[75.8504,32.9293],[75.9544,32.8729],[76.0875,32.9568],[76.1119,33.0063],[76.2220,33.0214],[76.2924,33.1039],[76.4101,33.1864],[76.5691,33.2097],[76.6456,33.1616],[76.7481,33.1795],[76.7725,33.2510],[76.8169,33.1602],[76.8857,33.1217],[76.9331,33.0283],[77.0096,32.9884],[77.1502,32.9774],[77.3383,32.8165],[77.4056,32.8825],[77.4683,32.8578],[77.6029,32.9430],[77.7405,32.9691],[77.8108,32.9073],[77.9347,32.7258],[77.9179,32.6901],[78.0158,32.6200],[78.0983,32.6310],[78.1427,32.6818],[78.2191,32.6639],[78.3873,32.7574],[78.4057,32.6200],[78.3124,32.5732],[78.3981,32.5251],[78.4546,32.4522],[78.5342,32.4137],[78.4806,32.3478],[78.4822,32.2790],[78.6091,32.2144],[78.5907,32.1539],[78.7819,31.9931],[78.7054,31.7745],[78.7635,31.6741],[78.8461,31.6081],[78.7345,31.5366],[78.7972,31.4432],[78.7498,31.3662],[78.7911,31.3043],[78.8813,31.2837],[78.9853,31.1737],[79.0082,31.1105],[78.8859,31.0981],[78.8094,31.1985],[78.6718,31.1971],[78.6091,31.2287],[78.4837,31.1985],[78.3705,31.2864],[78.3109,31.2837],[78.2467,31.2301],[78.1029,31.1861],[77.9668,31.1737],[77.8644,31.1091],[77.8292,31.0294],[77.8063,30.8534],[77.7038,30.7640],[77.8185,30.5606],[77.8154,30.5056],[77.5753,30.4011],[77.5799,30.3791],[77.5234,30.4437],[77.4071,30.4272],[77.2083,30.4877],[77.1227,30.5633],[77.1716,30.6018],[77.1671,30.6843],[77.0248,30.7489],[76.9163,30.9001]]]}},{"type":"Feature","properties":{"id":"PB","name":"Punjab"},"geometry":{"type":"Polygon","coordinates":[[[75.4605,29.8072],[75.3458,29.6959],[75.3030,29.5598],[75.1684,29.6670],[75.2418,29.7508],[75.1913,29.8443],[75.1179,29.8320],[74.9971,29.8677],[74.9268,29.9502],[74.8121,29.9928],[74.7051,29.9749],[74.6470,29.9117],[74.4482,29.9474],[73.8946,29.9736],[73.9038,30.0505],[73.9756,30.1193],[73.9603,30.2705],[73.8793,30.3599],[73.9649,30.4245],[73.9634,30.4850],[74.2157,30.6912],[74.3656,30.8933],[74.5965,31.0376],[74.7081,31.0720],[74.6898,31.1283],[74.5109,31.1325],[74.5521,31.3648],[74.6515,31.4569],[74.6118,31.4995],[74.5032,31.7401],[74.5598,31.7580],[74.5720,31.8391],[74.6668,31.9230],[74.8060,31.9628],[74.9130,32.0439],[75.0124,32.0357],[75.1225,32.0811],[75.1745,32.0673],[75.3794,32.1828],[75.3810,32.2694],[75.3412,32.3464],[75.5125,32.3079],[75.5966,32.3780],[75.6868,32.3904],[75.7281,32.4522],[75.8367,32.5113],[75.9315,32.3945],[75.8734,32.3959],[75.7709,32.2886],[75.6379,32.2515],[75.6608,32.1374],[75.5981,32.0824],[75.6547,32.0769],[75.9101,31.9504],[75.9605,31.8570],[75.9605,31.7814],[76.0171,31.6315],[76.1211,31.4982],[76.2006,31.3029],[76.2893,31.3071],[76.3918,31.4129],[76.4315,31.3263],[76.4973,31.2699],[76.5875,31.2741],[76.6456,31.2095],[76.6242,30.9991],[76.7328,30.9373],[76.8459,30.8341],[76.8383,30.7544],[76.7098,30.7613],[76.7389,30.6925],[76.8276,30.6816],[76.9254,30.6101],[76.8979,30.4451],[76.9117,30.4258],[76.7481,30.4286],[76.7114,30.3255],[76.5615,30.2416],[76.6425,30.1495],[76.5768,30.1014],[76.4667,30.0987],[76.4101,30.1454],[76.2541,30.0890],[76.1716,29.9268],[76.2144,29.8402],[76.0982,29.8100],[76.0492,29.7467],[75.9468,29.7288],[75.7786,29.8223],[75.5798,29.7398],[75.4605,29.8072]]]}},{"type":"Feature","properties":{"id":"UT","name":"Uttarakhand"},"geometry":{"type":"Polygon","coordinates":[[[78.5326,29.6395],[78.5112,29.7247],[78.3354,29.7976],[78.2038,29.7371],[78.1304,29.6519],[78.0203,29.5817],[77.9271,29.7137],[77.8200,29.6739],[77.7160,29.8856],[77.8017,30.0959],[77.8598,30.1138],[77.9592,30.2416],[77.7222,30.3296],[77.6579,30.4011],[77.5753,30.4011],[77.8154,30.5056],[77.8185,30.5606],[77.7038,30.7640],[77.8063,30.8534],[77.8292,31.0294],[77.8644,31.1091],[77.9668,31.1737],[78.2467,31.2301],[78.3109,31.2837],[78.3705,31.2864],[78.4837,31.1985],[78.6091,31.2287],[78.6718,31.1971],[78.8094,31.1985],[78.8859,31.0981],[79.0082,31.1105],[78.9853,31.1737],[78.8813,31.2837],[78.9440,31.3662],[79.0067,31.3786],[79.0724,31.4555],[79.1382,31.4335],[79.1672,31.3607],[79.2330,31.3332],[79.2223,31.2603],[79.2957,31.2177],[79.3186,31.1352],[79.5067,31.0321],[79.6015,30.9331],[79.7315,30.9785],[79.8645,30.9730],[79.8890,30.9180],[80.0542,30.8438],[80.1016,30.7888],[80.1734,30.8080],[80.2499,30.7448],[80.2132,30.5839],[80.4181,30.5248],[80.5404,30.4478],[80.6077,30.4712],[80.7087,30.4176],[80.8035,30.3241],[80.9992,30.2677],[81.0451,30.2100],[80.9289,30.1743],[80.6750,29.9571],[80.6016,29.9571],[80.5542,29.8498],[80.4349,29.8045],[80.3661,29.7398],[80.4089,29.5955],[80.3417,29.5103],[80.2423,29.4443],[80.3187,29.3013],[80.2591,29.1872],[80.1444,29.1020],[80.1184,28.9810],[80.0740,28.9411],[80.0297,28.7486],[79.9548,28.7225],[79.8202,28.8875],[79.5847,28.8463],[79.4226,28.8971],[79.4073,28.9521],[79.2590,28.9920],[79.1428,29.0676],[79.1535,29.1157],[79.0357,29.1693],[78.9272,29.1185],[78.8752,29.2051],[78.7605,29.2642],[78.9256,29.4388],[78.8002,29.4649],[78.6167,29.5584],[78.5326,29.6395]]]}},{"type":"Feature","properties":{"id":"CH","name":"Chandigarh"},"geometry":{"type":"Polygon","coordinates":[[[76.7389,30.6925],[76.7098,30.7613],[76.8383,30.7544],[76.8276,30.6816],[76.7389,30.6925]]]}}]}